{"type":"FeatureCollection","features":[{"type":"Feature","geometry":{"type":"Polygon","coordinates":[[[95.2339,26.6825],[95.1946,27.0313],[95.4581,27.1381],[95.5073,27.2595],[95.8941,27.257],[96.0178,27.3695],[95.8422,27.4269],[95.8757,27.5466],[95.7541,27.7258],[95.9703,27.9629],[95.6052,27.9547],[94.4617,27.5553],[94.237,27.6325],[94.2682,27.5209],[93.6574,26.9664],[93.0214,26.9136],[92.6774,27.0318],[92.1947,26.8901],[92.1121,26.8919],[92.0285,27.078],[92.0409,27.2613],[92.1199,27.2753],[92.0201,27.4793],[91.655,27.4828],[91.5599,27.6334],[91.6305,27.8008],[91.5484,27.8469],[91.8301,27.8075],[91.9207,27.7149],[92.2022,27.8568],[92.309,27.7788],[92.5621,27.8205],[92.741,27.9889],[92.682,28.1176],[93.2086,28.3227],[93.1846,28.4396],[93.3346,28.6335],[93.9363,28.6764],[94.2171,29.0838],[94.5603,29.2286],[94.6308,29.3485],[94.8,29.1639],[95.4553,29.0352],[95.6001,29.2604],[96.0821,29.4617],[96.2349,29.241],[96.3934,29.2538],[96.1246,29.0779],[96.1664,28.9026],[96.5251,29.0758],[96.4772,28.9904],[96.6145,28.7603],[96.2659,28.4054],[96.3976,28.3393],[96.6628,28.4603],[96.994,28.3095],[97.0901,28.3629],[97.3973,28.1924],[97.3068,28.0851],[97.4079,28.0064],[97.3851,27.8874],[97.2527,27.901],[96.8929,27.6159],[96.903,27.4536],[97.1616,27.1232],[96.9013,27.1686],[96.7967,27.3458],[96.6057,27.3658],[96.5179,27.286],[96.0889,27.2201],[95.7231,26.8815],[95.2573,26.6761],[95.2339,26.6825]]]},"properties":{"ST_NM":"Arunachal Pradesh"}},{"type":"Feature","geometry":{"type":"Polygon","coordinates":[[[95.1946,27.0313],[94.4599,26.6609],[94.3152,26.4585],[94.2562,26.5413],[94.0077,26.1826],[93.9786,25.9168],[93.79,25.8113],[93.7872,25.9467],[93.6814,25.9039],[93.702,25.8516],[93.3266,25.5454],[93.4553,25.4345],[93.4704,25.3052],[93.2417,25.004],[93.1914,24.8045],[93.105,24.7917],[93.0415,24.4131],[92.8261,24.3765],[92.7637,24.5211],[92.4649,24.1362],[92.4224,24.255],[92.206,24.2385],[92.2959,24.7366],[92.2365,24.9034],[92.4758,24.8675],[92.4184,24.9665],[92.4809,25.1087],[92.8014,25.2203],[92.782,25.3328],[92.5643,25.4737],[92.6533,25.5907],[92.585,25.5506],[92.373,25.7503],[92.1638,25.6671],[92.2203,25.9001],[92.1524,25.9444],[92.2582,26.0636],[91.9202,25.9979],[91.8212,26.1176],[91.6705,25.9042],[91.5802,26.0334],[91.4694,25.8593],[91.2224,25.7227],[91.2034,25.8442],[91.0015,25.8247],[91.0305,25.8859],[90.9399,25.9474],[90.5085,25.9016],[90.4971,25.9968],[90.3997,26.0126],[90.1168,25.9573],[89.8996,25.7472],[90.0202,25.6076],[89.8481,25.4787],[89.8168,25.8149],[89.8872,25.9451],[89.7035,26.1774],[89.8564,26.385],[89.8624,26.737],[90.14,26.7538],[90.3567,26.901],[90.717,26.7684],[91.6901,26.8068],[91.893,26.9187],[92.0562,26.8467],[92.6774,27.0318],[93.0214,26.9136],[93.5866,26.9506],[93.8356,27.0744],[93.8053,27.1482],[94.2682,27.5209],[94.237,27.6325],[94.4617,27.5553],[95.6052,27.9547],[95.9703,27.9629],[95.7541,27.7258],[95.8757,27.5466],[95.8422,27.4269],[96.0178,27.3695],[95.8941,27.257],[95.5073,27.2595],[95.4581,27.1381],[95.2109,27.0297],[95.1946,27.0313]]]},"properties":{"ST_NM":"Assam"}},{"type":"Feature","geometry":{"type":"Polygon","coordinates":[[[76.8381,30.7549],[76.8086,30.6674],[76.7117,30.7617],[76.815,30.753],[76.8381,30.7549]]]},"properties":{"ST_NM":"Chandigarh"}},{"type":"Feature","geometry":{"type":"Polygon","coordinates":[[[77.5514,18.2919],[77.6055,18.2813],[77.5538,18.0358],[77.6556,17.9698],[77.4441,17.5844],[77.6887,17.4753],[77.513,17.4309],[77.3802,17.2225],[77.5022,17.0094],[77.4189,16.6686],[77.4678,16.6098],[77.2444,16.4633],[77.5882,16.3328],[77.4901,16.2553],[77.5135,15.9268],[77.1853,15.9568],[77.0354,15.8611],[77.1289,15.6659],[77.0305,15.6345],[76.9771,15.4898],[77.1692,15.1714],[77.0825,15.0061],[76.7861,15.0878],[76.7672,14.9749],[76.8696,14.9377],[76.765,14.6022],[76.868,14.4741],[76.9748,14.4854],[76.8848,14.3957],[76.9401,14.2446],[77.1149,14.2232],[77.1668,14.3422],[77.2866,14.3401],[77.3926,14.1989],[77.3942,14.3366],[77.5039,14.2638],[77.5035,14.1572],[77.3567,14.1302],[77.4055,13.8895],[77.3222,14.03],[77.1411,14.0039],[77.0316,14.0569],[77.026,14.1748],[76.8945,14.1678],[77.0417,13.9335],[76.9969,13.7478],[77.1731,13.7621],[77.1847,13.9252],[77.1814,13.8699],[77.4277,13.8327],[77.4553,13.6823],[77.5283,13.6931],[77.5407,13.756],[77.7151,13.7438],[77.8266,13.9448],[77.9875,13.9555],[77.9559,13.831],[78.1148,13.8629],[78.0989,13.6428],[78.2029,13.5688],[78.4022,13.5873],[78.369,13.3732],[78.5775,13.2953],[78.5773,13.1719],[78.4121,12.9436],[78.4681,12.8794],[78.3497,12.9358],[78.2309,12.7607],[77.836,12.8704],[77.7404,12.6737],[77.5989,12.6672],[77.6205,12.3826],[77.4722,12.21],[77.7313,12.1801],[77.7755,12.1185],[77.669,11.9492],[77.4928,11.9414],[77.428,11.7671],[77.2498,11.8131],[77.105,11.7329],[77.0129,11.8147],[76.9088,11.7952],[76.8564,11.5994],[76.6136,11.6078],[76.12,11.8504],[76.1125,11.9788],[75.8585,11.9589],[75.8027,12.0795],[75.6673,12.0966],[75.4327,12.2934],[75.3659,12.412],[75.4179,12.4976],[75.2801,12.5242],[75.2982,12.6072],[75.2203,12.5682],[75.161,12.673],[75.0424,12.6721],[75.0022,12.7919],[74.8465,12.7962],[74.6094,13.8606],[74.2628,14.7198],[74.0953,14.7999],[74.0857,14.9006],[74.2966,15.0412],[74.2523,15.251],[74.336,15.2956],[74.252,15.6543],[74.1032,15.6722],[74.209,15.7813],[74.3593,15.7759],[74.4633,16.0399],[74.3723,16.0782],[74.4913,16.1043],[74.5032,16.2254],[74.3209,16.2845],[74.3635,16.3982],[74.2642,16.5398],[74.3788,16.5284],[74.4549,16.6473],[74.5686,16.5539],[74.6359,16.5839],[74.6911,16.7155],[74.9198,16.7729],[74.9381,16.9436],[75.0894,16.9516],[75.2277,16.8432],[75.2797,16.9566],[75.6752,16.9656],[75.6542,17.2738],[75.5742,17.3833],[75.6331,17.4772],[75.8043,17.3678],[75.8941,17.4012],[75.934,17.3227],[76.1198,17.3704],[76.1651,17.3033],[76.244,17.3788],[76.3832,17.3145],[76.3316,17.596],[76.5307,17.7583],[76.6907,17.6835],[76.7826,17.8066],[76.7413,17.8954],[76.9192,17.9162],[76.952,18.1881],[77.1126,18.1568],[77.327,18.4517],[77.4141,18.3931],[77.3658,18.3071],[77.5243,18.3078],[77.5514,18.2919]]]},"properties":{"ST_NM":"Karnataka"}},{"type":"Feature","geometry":{"type":"Polygon","coordinates":[[[94.6755,25.4456],[94.5758,25.2145],[94.7409,25.1266],[94.7136,24.9362],[94.3983,24.4823],[94.1439,23.8358],[93.7578,24.0032],[93.5002,23.9447],[93.3983,24.0853],[93.2569,24.0254],[92.991,24.1156],[93.105,24.7917],[93.1914,24.8045],[93.4539,25.3249],[93.6053,25.1991],[93.8049,25.4631],[93.7672,25.5342],[94.0217,25.5902],[94.3185,25.5025],[94.5718,25.6918],[94.5539,25.5026],[94.616,25.4625],[94.6755,25.4456]]]},"properties":{"ST_NM":"Manipur"}},{"type":"Feature","geometry":{"type":"Polygon","coordinates":[[[92.4252,25.0297],[92.0746,25.1862],[91.642,25.1243],[91.2646,25.2068],[90.4446,25.1438],[89.8349,25.296],[89.8158,25.3886],[89.8776,25.5498],[90.0202,25.6076],[89.8996,25.7472],[90.1168,25.9573],[90.3997,26.0126],[90.4971,25.9968],[90.5085,25.9016],[90.9399,25.9474],[91.0305,25.8859],[91.0015,25.8247],[91.2034,25.8442],[91.2224,25.7227],[91.4694,25.8593],[91.5802,26.0334],[91.6705,25.9042],[91.8212,26.1176],[91.9202,25.9979],[92.1691,26.0776],[92.27,26.0476],[92.1524,25.9444],[92.2203,25.9001],[92.1638,25.6671],[92.4146,25.7405],[92.585,25.5506],[92.6533,25.5907],[92.5643,25.4737],[92.782,25.3328],[92.8014,25.2203],[92.4384,25.0442],[92.4252,25.0297]]]},"properties":{"ST_NM":"Meghalaya"}},{"type":"Feature","geometry":{"type":"Polygon","coordinates":[[[93.0087,24.4118],[92.991,24.1156],[93.3262,24.0485],[93.4355,23.6782],[93.3553,23.3522],[93.3865,23.1436],[93.2944,23.007],[93.1265,23.044],[93.0909,22.7042],[93.1993,22.256],[93.1507,22.1763],[93.0424,22.1994],[93.0034,21.9825],[92.9565,22.0296],[92.9035,21.9414],[92.7252,22.1483],[92.6796,22.0115],[92.599,22.0063],[92.5178,22.7172],[92.3716,22.9368],[92.3475,23.2367],[92.4005,23.2364],[92.257,23.8129],[92.3239,23.905],[92.2923,24.2505],[92.4224,24.255],[92.4649,24.1362],[92.7637,24.5211],[92.8261,24.3765],[92.9994,24.4008],[93.0087,24.4118]]]},"properties":{"ST_NM":"Mizoram"}},{"type":"Feature","geometry":{"type":"Polygon","coordinates":[[[95.1946,27.0313],[95.2339,26.6825],[95.0617,26.4495],[95.1322,26.3777],[95.1181,26.1006],[95.1857,26.0733],[95.0128,25.8984],[95.0487,25.7598],[94.8969,25.5712],[94.616,25.4625],[94.5539,25.5026],[94.5718,25.6918],[94.3185,25.5025],[94.0217,25.5902],[93.8344,25.5606],[93.6053,25.1991],[93.5007,25.2441],[93.4553,25.4345],[93.3266,25.5454],[93.702,25.8516],[93.6814,25.9039],[93.7872,25.9467],[93.79,25.8113],[93.9786,25.9168],[94.0077,26.1826],[94.2562,26.5413],[94.3152,26.4585],[94.4599,26.6609],[94.6937,26.733],[94.8905,26.9296],[95.1501,26.9993],[95.1946,27.0313]]]},"properties":{"ST_NM":"Nagaland"}},{"type":"Feature","geometry":{"type":"Polygon","coordinates":[[[76.7767,30.9043],[76.857,30.7948],[76.7128,30.7413],[76.926,30.6101],[76.8864,30.4297],[76.9394,30.3948],[76.735,30.4191],[76.7483,30.3525],[76.5566,30.2623],[76.6533,30.2011],[76.547,30.0762],[76.4218,30.1924],[76.3399,30.0987],[76.2274,30.1445],[76.1782,29.9422],[76.2438,29.8524],[76.0434,29.7427],[75.7788,29.8224],[75.5721,29.7433],[75.4616,29.8077],[75.2421,29.5459],[75.1679,29.667],[75.2103,29.8329],[75.1007,29.8068],[75.0888,29.9172],[74.9905,29.868],[74.8064,29.9921],[74.6468,29.9043],[73.8955,29.9741],[73.9707,30.1251],[73.8798,30.3598],[73.9648,30.4247],[73.9346,30.4901],[74.0723,30.5229],[74.3659,30.8929],[74.7024,31.0917],[74.5103,31.132],[74.5516,31.3644],[74.6539,31.4278],[74.4866,31.7151],[74.5706,31.837],[74.8753,32.0508],[75.2612,32.1016],[75.3742,32.2414],[75.3414,32.3461],[75.5334,32.2777],[75.8344,32.5118],[75.9322,32.399],[75.6179,32.2367],[75.6731,32.1588],[75.5943,32.0791],[75.9115,31.9399],[76.191,31.3],[76.3112,31.3195],[76.3792,31.4284],[76.6454,31.2091],[76.6247,30.9988],[76.7661,30.9208],[76.7767,30.9043]]]},"properties":{"ST_NM":"Punjab"}},{"type":"Feature","geometry":{"type":"Polygon","coordinates":[[[74.5272,29.9428],[74.561,29.8696],[74.4772,29.7453],[74.6161,29.7522],[74.6219,29.5222],[74.5346,29.4477],[74.6042,29.3273],[74.8505,29.4036],[75.0751,29.2299],[75.4106,29.2555],[75.3912,29.0627],[75.5206,29.0044],[75.4734,28.9234],[75.5615,28.6132],[76.0954,28.1509],[75.946,28.1077],[76.0408,28.074],[75.9327,27.9295],[75.9714,27.852],[76.2171,27.8167],[76.1604,27.9984],[76.1895,28.0565],[76.3423,28.0306],[76.2923,28.1792],[76.4757,28.1486],[76.4547,28.0423],[76.5438,28.0342],[76.5447,27.9637],[76.8749,28.2178],[76.9705,28.1384],[76.9155,27.6526],[77.0857,27.7381],[77.0448,27.8218],[77.3015,27.7949],[77.34,27.5266],[77.4395,27.3907],[77.6125,27.3319],[77.6811,27.1944],[77.5264,27.0782],[77.7622,27.001],[77.4266,26.859],[77.4546,26.7419],[77.5012,26.8444],[77.6076,26.8278],[77.7606,26.9326],[78.0323,26.8652],[78.1245,26.9493],[78.2723,26.9192],[78.1836,26.7838],[78.1165,26.7966],[78.0952,26.6793],[77.8984,26.6555],[77.8129,26.5472],[77.0324,26.1729],[76.7308,25.9054],[76.5781,25.8655],[76.4752,25.7128],[76.5553,25.4534],[76.7289,25.3288],[77.2092,25.3062],[77.2943,25.4244],[77.3709,25.4084],[77.3758,25.1048],[76.8624,25.0025],[76.9418,24.8587],[76.8026,24.8093],[77.0307,24.7122],[77.0713,24.5724],[76.9778,24.4612],[76.9176,24.5434],[76.8164,24.5336],[76.8415,24.3225],[76.946,24.206],[76.9008,24.1272],[76.7006,24.1677],[76.6954,24.2843],[76.5276,24.157],[76.4705,24.2259],[76.2175,24.2112],[76.1861,24.3286],[76.1271,24.088],[75.9622,24.0146],[75.9871,23.9403],[75.7833,23.8491],[75.7059,23.899],[75.6931,23.7762],[75.5835,23.7947],[75.4689,23.9744],[75.5211,24.0246],[75.729,23.9699],[75.8368,24.057],[75.752,24.148],[75.8181,24.2387],[75.7279,24.3964],[75.7894,24.4716],[75.8388,24.4141],[75.9092,24.455],[75.8376,24.7253],[75.2199,24.7029],[75.2405,24.8458],[75.4197,24.856],[75.2634,24.8748],[75.3343,25.0411],[75.17,25.0489],[75.1192,24.8824],[75.0331,24.8445],[74.8431,24.969],[74.8493,24.7759],[75.0153,24.7316],[74.89,24.634],[74.809,24.7807],[74.7087,24.4864],[74.8555,24.4403],[74.7471,24.2534],[74.8968,24.2271],[74.9824,24.0257],[74.9025,23.8732],[74.9365,23.6286],[74.5424,23.3647],[74.5438,23.2804],[74.7443,23.2114],[74.3244,23.0614],[73.9624,23.3808],[73.8896,23.3363],[73.8332,23.4358],[73.636,23.449],[73.6557,23.6212],[73.5227,23.6071],[73.5073,23.7028],[73.3561,23.7849],[73.4201,23.9248],[73.362,24.1046],[73.2395,24.004],[73.0675,24.1946],[73.2193,24.3638],[73.0765,24.3965],[73.086,24.4984],[72.9107,24.3371],[72.7326,24.3635],[72.5373,24.5195],[72.4573,24.4147],[72.4438,24.5084],[72.2463,24.5862],[72.348,24.6269],[72.1648,24.6212],[72.0583,24.7124],[71.9413,24.6344],[71.8718,24.6816],[71.8522,24.6092],[71.7717,24.6753],[71.2876,24.6158],[71.112,24.6757],[70.8882,25.1483],[70.6645,25.3971],[70.6598,25.7022],[70.2684,25.7138],[70.0995,25.9383],[70.174,26.5514],[69.7917,26.5983],[69.4842,26.8049],[69.5869,27.1835],[70.0257,27.5629],[70.1322,27.8056],[70.3719,28.0118],[70.5892,28.0104],[70.7395,27.7419],[70.8716,27.7056],[71.8983,27.9615],[71.9277,28.1216],[72.2061,28.3941],[72.3545,28.7331],[72.9452,29.0277],[73.2824,29.572],[73.397,29.9459],[73.8062,30.0677],[73.9726,30.1981],[73.8955,29.9741],[74.3838,29.9503],[74.5272,29.9428]]]},"properties":{"ST_NM":"Rajasthan"}},{"type":"Feature","geometry":{"type":"Polygon","coordinates":[[[88.7455,27.142],[88.5413,27.1818],[88.4306,27.0794],[88.1536,27.1098],[88.0148,27.2117],[88.0443,27.4965],[88.1976,27.7917],[88.1449,27.9643],[88.4107,27.9832],[88.6291,28.1245],[88.8362,28.015],[88.8807,27.8296],[88.777,27.4693],[88.9191,27.3205],[88.7614,27.1527],[88.7455,27.142]]]},"properties":{"ST_NM":"Sikkim"}},{"type":"Feature","geometry":{"type":"Polygon","coordinates":[[[92.2117,24.5045],[92.2598,24.3585],[92.206,24.2385],[92.2923,24.2505],[92.3315,24.1524],[92.2654,23.7251],[92.2288,23.6534],[92.1357,23.7352],[92.0426,23.6464],[91.9584,23.7386],[91.9471,23.4305],[91.8636,23.4083],[91.7978,23.4894],[91.8424,23.3889],[91.7601,23.2822],[91.8222,23.0862],[91.6069,22.9535],[91.4485,23.26],[91.3863,23.2276],[91.4119,23.0655],[91.3469,23.1024],[91.1581,23.7421],[91.2209,23.7424],[91.2802,23.9823],[91.3789,23.9743],[91.3759,24.1056],[91.581,24.0744],[91.6468,24.2174],[91.7571,24.1438],[91.7469,24.2452],[91.9105,24.1406],[91.922,24.3373],[92.1679,24.4242],[92.1689,24.5272],[92.2117,24.5045]]]},"properties":{"ST_NM":"Tripura"}},{"type":"Feature","geometry":{"type":"Polygon","coordinates":[[[80.0651,28.8367],[79.9544,28.7229],[79.8881,28.8367],[79.8243,28.8073],[79.8277,28.8845],[79.4256,28.8665],[79.372,28.9858],[79.1622,29.0254],[79.1265,29.1329],[78.9269,29.1181],[78.7313,29.3136],[78.9253,29.4339],[78.6177,29.5581],[78.4274,29.7646],[78.3357,29.7967],[77.9675,29.5801],[77.9455,29.7131],[77.7697,29.7177],[77.7337,29.9553],[77.9472,30.2343],[77.5743,30.4134],[77.8185,30.5081],[77.7041,30.7656],[77.9079,31.1541],[78.3703,31.2864],[78.9592,31.0995],[78.9859,31.1739],[78.882,31.2868],[79.0961,31.4517],[79.427,31.0237],[79.6009,30.9393],[79.7532,31.0064],[79.8744,30.9673],[80.2488,30.7431],[80.2094,30.588],[81.0323,30.2463],[80.9284,30.1748],[80.9074,30.2227],[80.7361,29.9997],[80.369,29.7497],[80.4059,29.5915],[80.2423,29.4419],[80.2979,29.2052],[80.1451,29.1032],[80.0589,28.9158],[80.0651,28.8367]]]},"properties":{"ST_NM":"Uttarakhand"}},{"type":"Feature","geometry":{"type":"Polygon","coordinates":[[[80.2729,18.723],[80.3431,18.5981],[80.4892,18.6308],[80.6376,18.5226],[80.7917,18.2509],[80.7368,18.1772],[80.8236,18.2395],[80.8667,18.1403],[80.979,18.1788],[81.0082,17.7983],[81.0956,17.7623],[80.8855,17.7357],[80.8554,17.6019],[81.1245,17.5271],[81.3054,17.3463],[81.1904,17.3249],[81.1712,17.231],[80.9189,17.2198],[80.8453,17.04],[80.58,17.1531],[80.4649,17.0301],[80.3873,17.0713],[80.3714,16.9759],[80.6019,16.9186],[80.5702,16.7681],[80.3789,16.8188],[80.2837,17.0072],[80.1873,17.02],[80.0174,16.915],[80.0727,16.8165],[79.9648,16.645],[79.7728,16.7306],[79.2617,16.567],[79.2154,16.2262],[79.0091,16.24],[78.8895,16.0847],[78.8347,16.1452],[78.7855,16.0212],[78.4079,16.0748],[78.2625,16.0267],[78.1343,15.8366],[78.045,15.9042],[77.5135,15.9268],[77.4901,16.2553],[77.5882,16.3328],[77.2444,16.4633],[77.4678,16.6098],[77.4189,16.6686],[77.5022,17.0094],[77.3802,17.2225],[77.513,17.4309],[77.6887,17.4753],[77.4441,17.5844],[77.6556,17.9698],[77.5538,18.0358],[77.6055,18.2813],[77.5285,18.4434],[77.5964,18.5489],[77.7385,18.5568],[77.7596,18.7067],[77.9483,18.8291],[77.7715,18.9792],[77.9027,19.2564],[77.8635,19.3041],[77.9435,19.3427],[78.1753,19.2376],[78.1925,19.4067],[78.3044,19.4561],[78.2627,19.6651],[78.3647,19.7812],[78.307,19.9143],[78.4851,19.7961],[78.841,19.7619],[78.8519,19.6586],[78.9555,19.6559],[78.9521,19.5489],[79.1897,19.4591],[79.2511,19.6159],[79.5008,19.5074],[79.7786,19.5997],[79.9747,19.411],[79.9446,19.1671],[79.8593,19.1081],[79.9383,19.0406],[79.9214,18.8097],[80.1123,18.6829],[80.2485,18.7064],[80.2729,18.723]]]},"properties":{"ST_NM":"Telangana"}},{"type":"Feature","geometry":{"type":"Polygon","coordinates":[[[88.1054,26.5511],[88.2328,26.571],[88.1824,26.5083],[88.2864,26.3318],[87.9797,26.1442],[87.8108,25.928],[88.0497,25.7022],[88.0653,25.4894],[87.926,25.5387],[87.787,25.4493],[87.819,25.2425],[87.5519,25.3327],[87.4781,25.1944],[87.3345,25.2162],[87.2955,25.0886],[87.1461,25.009],[87.0511,24.6086],[86.6032,24.602],[86.4453,24.3679],[86.2761,24.4659],[86.3177,24.5775],[86.1246,24.6113],[86.0553,24.7797],[85.9383,24.7347],[85.7416,24.8198],[85.6691,24.5798],[85.2921,24.5237],[85.0988,24.3735],[84.9166,24.3733],[84.8022,24.5306],[84.6653,24.3916],[84.5675,24.4092],[84.5009,24.2876],[84.2972,24.4497],[84.2981,24.5593],[84.1039,24.4809],[84.0084,24.6428],[83.8727,24.5322],[83.5033,24.5254],[83.5437,24.6283],[83.3577,24.8714],[83.3536,25.1886],[83.8079,25.4091],[84.0892,25.7134],[84.2941,25.6602],[84.3366,25.7436],[84.5202,25.675],[84.6347,25.728],[84.534,25.8763],[84.1761,25.9966],[84.01,26.1744],[84.1769,26.265],[84.1755,26.3732],[83.9108,26.4497],[83.9061,26.5124],[84.0478,26.5363],[84.0882,26.6362],[84.4195,26.6261],[84.2326,26.7537],[84.2541,26.8566],[84.0524,26.9064],[83.9345,27.3072],[83.8368,27.3223],[83.8481,27.4488],[84.1518,27.5168],[84.2941,27.3824],[84.6202,27.3393],[84.6899,27.2216],[84.6448,27.0457],[84.9607,26.9611],[85.0576,26.8494],[85.1926,26.8671],[85.2119,26.7579],[85.6352,26.8724],[85.7347,26.7959],[85.7323,26.6536],[85.8595,26.5701],[86.0282,26.6662],[86.3431,26.6173],[86.7304,26.4225],[87.0707,26.5865],[87.0911,26.4508],[87.3402,26.3477],[87.4637,26.4402],[87.5883,26.3817],[87.8991,26.4786],[88.0296,26.368],[88.1067,26.5367],[88.1054,26.5511]]]},"properties":{"ST_NM":"Bihar"}},{"type":"Feature","geometry":{"type":"Polygon","coordinates":[[[76.4313,11.6665],[76.2334,11.5679],[76.2472,11.468],[76.5478,11.359],[76.4584,11.1878],[76.7355,11.2157],[76.7666,11.0292],[76.6591,10.9306],[76.9073,10.7834],[76.8821,10.639],[76.8117,10.6196],[76.8299,10.3032],[76.9841,10.2223],[77.2353,10.3529],[77.2953,10.2185],[77.2012,10.1072],[77.2728,9.9643],[77.1677,9.6151],[77.3545,9.6042],[77.4123,9.5091],[77.1493,9.0097],[77.2567,8.8782],[77.179,8.7307],[77.2838,8.5469],[77.0978,8.2925],[76.5424,8.9134],[76.3403,9.4096],[76.2406,9.9823],[75.7156,11.3933],[75.508,11.7326],[75.2042,12.0056],[74.8696,12.7607],[75.0022,12.7919],[75.0424,12.6721],[75.161,12.673],[75.2203,12.5682],[75.2982,12.6072],[75.2801,12.5242],[75.4179,12.4976],[75.3659,12.412],[75.577,12.1569],[75.8027,12.0795],[75.8968,11.9448],[76.1125,11.9788],[76.12,11.8504],[76.4111,11.7582],[76.4167,11.6718],[76.4313,11.6665]],[[75.5377,11.7626],[75.5403,11.7347],[75.5272,11.7207],[75.5472,11.7159],[75.5558,11.7277],[75.5424,11.737],[75.5463,11.7561],[75.5377,11.7626]]]},"properties":{"ST_NM":"Kerala"}},{"type":"Feature","geometry":{"type":"Polygon","coordinates":[[[82.8103,23.9629],[82.5253,23.7841],[81.9215,23.8709],[81.8234,23.8079],[81.6102,23.9041],[81.6959,23.7214],[81.5767,23.5854],[81.627,23.4821],[81.7358,23.5661],[81.9233,23.5327],[81.9849,23.4149],[82.1917,23.3269],[82.1613,23.1432],[81.9295,23.0617],[81.9463,22.9568],[81.7757,22.8745],[81.7716,22.6764],[81.6287,22.5444],[81.3964,22.4401],[81.3382,22.5204],[81.11,22.4356],[81.1184,22.2905],[81.0235,22.2292],[80.9949,22.0508],[80.9079,22.1096],[80.8386,21.8003],[80.7338,21.7286],[80.7353,21.4609],[80.6214,21.3203],[80.4129,21.3763],[80.254,21.6245],[80.0005,21.5336],[79.7334,21.6033],[79.5402,21.5427],[79.4962,21.674],[79.2681,21.7154],[79.1028,21.6014],[78.9165,21.5909],[78.9367,21.4857],[78.4571,21.4959],[78.3727,21.6134],[77.9019,21.3773],[77.4917,21.3741],[77.4256,21.5378],[77.6118,21.5385],[77.4787,21.77],[77.0698,21.7173],[76.7994,21.595],[76.7858,21.465],[76.6215,21.3322],[76.6232,21.1849],[76.4931,21.1938],[76.3804,21.0751],[76.1666,21.0789],[76.0956,21.3711],[75.2071,21.4128],[75.0517,21.5665],[74.513,21.7185],[74.524,21.9116],[74.4317,22.0302],[74.2052,21.926],[74.0948,22.0189],[74.1703,22.0916],[74.0718,22.3614],[74.1902,22.3202],[74.2704,22.413],[74.1878,22.4756],[74.1194,22.4188],[74.0384,22.5347],[74.3842,22.6474],[74.4766,22.8555],[74.3395,22.9528],[74.3244,23.0614],[74.7443,23.2114],[74.5438,23.2804],[74.5424,23.3647],[74.9365,23.6286],[74.9025,23.8732],[74.9824,24.0257],[74.8968,24.2271],[74.7471,24.2534],[74.8555,24.4403],[74.7087,24.4864],[74.809,24.7807],[74.89,24.634],[75.0153,24.7316],[74.8493,24.7759],[74.8336,24.9596],[75.0331,24.8445],[75.1192,24.8824],[75.17,25.0489],[75.3343,25.0411],[75.2634,24.8748],[75.4197,24.856],[75.2405,24.8458],[75.2199,24.7029],[75.8376,24.7253],[75.9092,24.455],[75.8388,24.4141],[75.7894,24.4716],[75.7279,24.3964],[75.8181,24.2387],[75.752,24.148],[75.8368,24.057],[75.729,23.9699],[75.5211,24.0246],[75.4689,23.9744],[75.5835,23.7947],[75.6931,23.7762],[75.7059,23.899],[75.7833,23.8491],[75.9871,23.9403],[75.9622,24.0146],[76.1271,24.088],[76.1861,24.3286],[76.2175,24.2112],[76.4705,24.2259],[76.5276,24.157],[76.6954,24.2843],[76.7006,24.1677],[76.9008,24.1272],[76.946,24.206],[76.8415,24.3225],[76.8164,24.5336],[76.9176,24.5434],[76.9778,24.4612],[77.0713,24.5724],[77.0307,24.7122],[76.8026,24.8093],[76.9418,24.8587],[76.8624,25.0025],[77.3758,25.1048],[77.3709,25.4084],[77.2943,25.4244],[77.2092,25.3062],[76.7289,25.3288],[76.5553,25.4534],[76.4752,25.7128],[76.9018,26.0935],[77.8129,26.5472],[77.8984,26.6555],[78.0952,26.6793],[78.1165,26.7966],[78.307,26.8626],[79.0091,26.6678],[79.135,26.3248],[78.9894,26.235],[79.0027,26.0667],[78.7528,25.7503],[78.8105,25.6194],[78.4443,25.5634],[78.301,25.362],[78.4427,25.1304],[78.1733,24.8467],[78.2768,24.6619],[78.226,24.5198],[78.395,24.269],[78.502,24.3903],[78.7894,24.1771],[78.9715,24.3476],[78.8831,24.6414],[78.757,24.5989],[78.7899,24.8104],[78.632,24.9621],[78.578,25.2527],[78.4383,25.2746],[78.6582,25.441],[78.7746,25.353],[78.803,25.4371],[78.7328,25.4842],[78.8481,25.4297],[78.8415,25.5125],[78.9394,25.5572],[78.9089,25.4424],[78.9875,25.3813],[78.7885,25.3001],[78.8428,25.2277],[78.8841,25.3441],[78.9615,25.3435],[78.8819,25.1569],[79.0059,25.195],[79.0132,25.274],[79.031,25.1384],[79.0903,25.1908],[79.1658,25.1075],[79.3136,25.1361],[79.2998,25.3377],[79.4819,25.2686],[79.4053,25.1062],[79.4827,25.0797],[79.5692,25.1718],[79.8438,25.0944],[79.8772,25.2509],[80.2639,25.4241],[80.4317,25.1776],[80.2737,25.026],[80.3943,25.0088],[80.449,25.0787],[80.4796,24.9759],[80.6019,25.1505],[80.775,25.0546],[80.7184,25.1305],[80.8823,25.1831],[80.8122,24.9225],[80.95,24.9645],[81.1396,24.8875],[81.292,25.1619],[81.4992,25.077],[81.5787,25.1908],[81.6117,25.0563],[81.8909,24.9958],[81.9442,24.8413],[82.2556,24.7494],[82.3011,24.6077],[82.4223,24.5994],[82.4277,24.7022],[82.7738,24.6418],[82.7443,24.1656],[82.6646,24.1298],[82.8023,23.9799],[82.8103,23.9629]],[[79.396,25.0322],[79.3646,25.1281],[79.3738,25.0453],[79.396,25.0322]]]},"properties":{"ST_NM":"Madhya Pradesh"}},{"type":"Feature","geometry":{"type":"MultiPolygon","coordinates":[[[[93.8372,7.2402],[93.9331,7.0111],[93.829,6.7551],[93.6458,7.1183],[93.8077,7.2373],[93.8372,7.2402]]],[[[93.7,7.4457],[93.7422,7.3616],[93.636,7.2444],[93.6191,7.3627],[93.6958,7.3962],[93.7,7.4457]]],[[[93.3713,8.0219],[93.451,7.8738],[93.3127,7.9291],[93.3451,8.0092],[93.3713,8.0219]]],[[[93.5367,8.0283],[93.5709,7.9404],[93.5124,7.9932],[93.5367,8.0283]]],[[[93.5701,8.1274],[93.5835,8.0401],[93.5694,8.1115],[93.5701,8.1274]]],[[[93.1168,8.3566],[93.1906,8.1974],[93.0853,8.34],[93.1168,8.3566]]],[[[93.2292,8.2616],[93.2393,8.2421],[93.2289,8.2247],[93.2105,8.2495],[93.2292,8.2616]]],[[[93.048,8.4416],[93.0343,8.4429],[93.0256,8.4541],[93.0344,8.4723],[93.0458,8.4629],[93.048,8.4416]]],[[[92.7924,9.2387],[92.8266,9.1411],[92.7291,9.1264],[92.7792,9.251],[92.7924,9.2387]]],[[[92.5206,10.8978],[92.597,10.6813],[92.4988,10.5136],[92.3824,10.5387],[92.3783,10.7826],[92.4922,10.8897],[92.5206,10.8978]]],[[[92.6913,11.2435],[92.6936,11.2847],[92.7058,11.287],[92.7048,11.2641],[92.6913,11.2435]]],[[[93.5119,8.2351],[93.4952,8.0013],[93.4849,8.2239],[93.5119,8.2351]]],[[[92.2143,11.595],[92.2586,11.5181],[92.2039,11.5869],[92.2143,11.595]]],[[[93.0171,11.8445],[93.0702,11.8353],[93.0195,11.8315],[93.0171,11.8445]]],[[[92.5954,11.9764],[92.6078,11.9406],[92.5957,11.9305],[92.5954,11.9764]]],[[[92.7615,11.9661],[92.7638,11.9527],[92.7448,11.9456],[92.7372,11.9559],[92.7615,11.9661]]],[[[92.5416,11.6027],[92.5601,11.5721],[92.5525,11.5621],[92.5336,11.5637],[92.5312,11.5925],[92.5416,11.6027]]],[[[92.9664,12.0413],[93.0372,11.8823],[92.9451,12.0104],[92.9664,12.0413]]],[[[92.9991,12.1063],[92.9952,12.0419],[92.9854,12.1108],[92.9991,12.1063]]],[[[93.0257,12.1456],[93.0392,12.0477],[93.0093,12.1504],[93.0257,12.1456]]],[[[92.9871,12.1601],[93.0027,12.1122],[92.952,12.1473],[92.9871,12.1601]]],[[[93.0718,12.2105],[93.0741,12.0848],[93.0561,12.1944],[93.0718,12.2105]]],[[[92.6389,11.5105],[92.6886,11.37],[92.6007,11.3463],[92.6312,11.5142],[92.6389,11.5105]]],[[[92.9543,12.4345],[92.9314,12.36],[92.944,12.4195],[92.9543,12.4345]]],[[[92.8873,12.4082],[92.8891,12.3928],[92.8599,12.3813],[92.8424,12.4014],[92.8541,12.4095],[92.8815,12.3986],[92.8873,12.4082]]],[[[92.7072,12.8302],[92.7113,12.8186],[92.7109,12.7789],[92.6935,12.7994],[92.7072,12.8302]]],[[[92.726,12.8655],[92.7173,12.8354],[92.7068,12.8373],[92.7191,12.8652],[92.726,12.8655]]],[[[92.9284,13.0239],[92.9413,13.0191],[92.9352,12.9962],[92.9191,13.0037],[92.9145,13.0148],[92.9284,13.0239]]],[[[93.0188,13.6711],[93.0308,13.6341],[93.0026,13.6527],[92.9849,13.643],[92.9833,13.6634],[93.0036,13.6639],[93.0188,13.6711]]],[[[93.055,13.3789],[93.0885,13.3361],[93.0401,13.3692],[93.055,13.3789]]],[[[92.6946,12.9915],[92.6649,12.8119],[92.6821,12.9851],[92.6946,12.9915]]],[[[92.791,12.9155],[92.8001,12.8977],[92.7827,12.895],[92.7736,12.9061],[92.791,12.9155]]],[[[93.0298,13.5685],[93.0573,13.3977],[92.9557,13.3351],[93.0568,13.2599],[93.0333,13.0819],[92.9144,13.0522],[92.8423,12.8771],[92.8259,13.3292],[92.913,13.527],[93.0034,13.5555],[93.0298,13.5685]]],[[[92.7346,12.2398],[92.7628,12.1831],[92.7206,12.2334],[92.7346,12.2398]]],[[[92.8102,12.3131],[92.891,12.2669],[92.7631,12.0643],[92.7948,12.3038],[92.8102,12.3131]]],[[[92.8997,12.2561],[92.9136,12.2319],[92.8908,12.2261],[92.8771,12.2089],[92.8681,12.2395],[92.8839,12.2392],[92.8868,12.2528],[92.8997,12.2561]]],[[[93.104,12.2505],[93.0936,12.2223],[93.0621,12.23],[93.0736,12.2619],[93.0813,12.2423],[93.0927,12.2395],[93.104,12.2505]]],[[[92.696,12.2391],[92.782,12.045],[92.7052,11.9279],[92.7896,11.8838],[92.6624,11.657],[92.7554,11.6645],[92.7105,11.4883],[92.5143,11.8484],[92.5644,11.9435],[92.6128,11.8535],[92.6833,12.2204],[92.696,12.2391]]],[[[92.7096,12.2975],[92.7225,12.2953],[92.7105,12.2419],[92.7032,12.2446],[92.6987,12.2746],[92.7096,12.2975]]],[[[92.9343,12.3028],[92.9407,12.2798],[92.9294,12.2608],[92.9007,12.2884],[92.9122,12.2929],[92.9283,12.2827],[92.9343,12.3028]]],[[[92.9011,12.9109],[92.9724,12.5311],[92.9186,12.4231],[92.8276,12.4238],[92.882,12.3331],[92.7192,12.3003],[92.7002,12.6004],[92.7985,12.6597],[92.7218,12.8254],[92.8958,12.8983],[92.9011,12.9109]]]]},"properties":{"ST_NM":"Andaman & Nicobar"}},{"type":"Feature","geometry":{"type":"MultiPolygon","coordinates":[[[[72.3623,22.0291],[72.4428,21.9764],[72.352,21.7975],[72.2929,21.9705],[72.3453,22.0241],[72.3623,22.0291]]],[[[69.629,22.4587],[69.6366,22.4055],[69.6033,22.4485],[69.629,22.4587]]],[[[74.3244,23.0614],[74.3395,22.9528],[74.4766,22.8555],[74.3842,22.6474],[74.0297,22.5077],[74.2704,22.413],[74.0524,22.2943],[74.1703,22.0916],[74.0948,22.0189],[74.1467,21.9528],[73.8082,21.8376],[73.8937,21.6713],[73.7814,21.6185],[73.852,21.4978],[74.2949,21.569],[74.3206,21.4984],[74.0701,21.4717],[73.823,21.2652],[73.8157,21.1739],[73.5774,21.1677],[73.9011,20.9821],[73.9422,20.7423],[73.6696,20.5632],[73.445,20.7098],[73.3942,20.6407],[73.4928,20.5357],[73.38,20.3939],[73.4166,20.1982],[73.3016,20.2099],[73.2107,20.1205],[73.1991,20.1944],[73.0629,20.1697],[73.1657,20.2829],[73.1054,20.3498],[72.7375,20.1348],[72.7776,20.3368],[72.9027,20.4057],[72.8982,20.583],[72.7281,21.0668],[72.6188,21.1141],[72.6006,21.3232],[72.7058,21.5269],[72.6122,21.5852],[72.8072,21.651],[72.5278,21.6782],[72.667,21.9555],[72.5582,21.8789],[72.509,21.9442],[72.5804,22.1974],[72.7582,22.1742],[72.9396,22.3093],[72.7638,22.234],[72.5167,22.3056],[72.4273,22.2095],[72.3733,22.3158],[72.2254,22.0545],[72.2425,21.8297],[72.1772,21.8036],[72.3047,21.6097],[72.1124,21.2],[71.1489,20.7581],[70.8031,20.7005],[70.1566,21.0573],[68.9364,22.3114],[69.0835,22.4739],[69.0394,22.4034],[69.1988,22.401],[69.157,22.1953],[69.3518,22.3267],[69.6558,22.3596],[69.7307,22.4844],[69.8044,22.4236],[70.1206,22.5536],[70.3761,22.9084],[70.4613,22.8527],[70.4644,22.9671],[70.5391,22.9643],[70.7117,23.2143],[70.312,23.2147],[70.0803,22.9198],[69.4476,22.7793],[68.7615,23.0785],[68.5839,23.2237],[68.6231,23.2593],[68.5503,23.2491],[68.5876,23.3373],[68.3998,23.4201],[68.4682,23.505],[68.3264,23.4961],[68.3101,23.5786],[68.0938,23.6668],[68.345,23.9724],[68.7504,23.9713],[68.8082,24.3137],[68.8573,24.2143],[68.9455,24.3026],[69.0034,24.223],[69.5942,24.2928],[69.7315,24.1709],[70.0252,24.171],[70.11,24.2948],[70.5729,24.4217],[70.5711,24.2514],[70.806,24.2206],[71.1196,24.4026],[70.9985,24.4441],[70.9874,24.5433],[71.0966,24.6894],[71.2876,24.6158],[71.7717,24.6753],[71.8522,24.6092],[71.8718,24.6816],[71.9413,24.6344],[72.0583,24.7124],[72.1648,24.6212],[72.348,24.6269],[72.2463,24.5862],[72.4438,24.5084],[72.4573,24.4147],[72.5373,24.5195],[72.7326,24.3635],[72.9107,24.3371],[73.086,24.4984],[73.0765,24.3965],[73.2193,24.3638],[73.0675,24.1946],[73.2395,24.004],[73.362,24.1046],[73.4201,23.9248],[73.3561,23.7849],[73.5073,23.7028],[73.5227,23.6071],[73.6557,23.6212],[73.636,23.449],[73.8332,23.4358],[73.8896,23.3363],[73.9624,23.3808],[74.3185,23.0731],[74.3244,23.0614]],[[72.9669,20.2999],[72.9828,20.3183],[72.9775,20.3313],[72.9617,20.3323],[72.9528,20.3153],[72.9669,20.2999]]],[[[69.8258,22.4906],[69.8014,22.4772],[69.7852,22.4887],[69.8176,22.5045],[69.8258,22.4906]]],[[[68.5398,23.3473],[68.5524,23.3489],[68.5508,23.3256],[68.5268,23.3102],[68.4999,23.3218],[68.4976,23.3327],[68.5249,23.3519],[68.5398,23.3473]]],[[[69.9708,22.5696],[69.9803,22.5728],[69.9893,22.5477],[69.9608,22.5486],[69.9449,22.568],[69.9717,22.5867],[69.9708,22.5696]]],[[[70.0168,22.6],[70.0375,22.5878],[70.0328,22.5728],[70.0014,22.5546],[69.9855,22.5887],[69.9916,22.5978],[70.0168,22.6]]]]},"properties":{"ST_NM":"Gujarat"}},{"type":"Feature","geometry":{"type":"Polygon","coordinates":[[[72.7621,11.1829],[72.7636,11.1932],[72.7795,11.2426],[72.7845,11.2431],[72.7757,11.2145],[72.7697,11.2057],[72.7621,11.1829]]]},"properties":{"ST_NM":"Lakshadweep"}},{"type":"Feature","geometry":{"type":"Polygon","coordinates":[[[84.7647,19.0773],[84.6688,19.1669],[84.6007,19.1275],[84.6518,19.0684],[84.3366,18.8895],[84.319,18.788],[84.0916,18.7602],[83.8945,18.8172],[83.7927,19.0189],[83.7534,18.9263],[83.6318,19.1407],[83.536,19.0141],[83.4653,19.0886],[83.4599,18.9557],[83.3088,18.9998],[83.4041,18.8449],[83.2172,18.7477],[83.1372,18.7863],[82.999,18.6215],[83.0872,18.5541],[83.0527,18.3807],[82.8014,18.45],[82.6367,18.2376],[82.4718,18.5433],[82.3625,18.4223],[82.3906,18.2987],[82.3092,18.2048],[82.3707,18.1489],[82.2645,17.9956],[82.075,18.0759],[81.6188,17.8241],[81.3891,17.8299],[81.5312,18.2653],[81.7503,18.3536],[81.963,18.5948],[81.9016,18.6606],[82.085,18.7186],[82.246,18.9191],[82.1675,19.1364],[82.1893,19.4154],[82.0292,19.5076],[82.0662,19.7832],[81.8518,19.9232],[81.865,20.0267],[81.9456,20.1052],[82.0325,20.0158],[82.2375,20.0035],[82.3453,19.8359],[82.4507,19.9094],[82.6038,19.8663],[82.5832,19.7792],[82.7039,19.832],[82.71,19.997],[82.401,20.0546],[82.438,20.4342],[82.3365,20.5539],[82.3521,20.8885],[82.4697,20.8339],[82.6366,21.1479],[82.965,21.1932],[83.1388,21.1094],[83.2742,21.3773],[83.4069,21.352],[83.338,21.502],[83.3928,21.6273],[83.4868,21.6433],[83.4181,21.6799],[83.469,21.7869],[83.5909,21.8512],[83.5627,22.103],[83.6659,22.2327],[84.0046,22.3736],[84.0456,22.4631],[83.9818,22.5228],[84.2913,22.3429],[85.057,22.4862],[85.118,22.3176],[84.9907,22.081],[85.0999,22.1042],[85.2391,22.0094],[85.371,22.161],[85.6902,22.0609],[85.8074,22.1161],[85.766,21.9949],[85.8257,21.9751],[85.9139,21.98],[86.0094,22.1178],[86.0291,22.3858],[85.9603,22.4614],[86.0454,22.5675],[86.411,22.3198],[86.4994,22.3463],[86.727,22.2168],[86.7218,22.1468],[86.9601,22.0879],[87.0397,21.8674],[87.2114,21.9648],[87.2765,21.8052],[87.4444,21.7682],[87.4862,21.6098],[87.0669,21.462],[86.8502,21.1956],[86.9777,20.8233],[86.8054,20.733],[87.0221,20.7703],[87.0556,20.715],[86.7761,20.5224],[86.7709,20.3239],[86.5204,20.1702],[86.355,19.948],[85.3073,19.5615],[84.7938,19.1222],[84.7647,19.0773]]]},"properties":{"ST_NM":"Odisha"}},{"type":"Feature","properties":{"ST_NM":"Dadra and Nagar Haveli and Daman and Diu"},"geometry":{"type":"MultiPolygon","coordinates":[[[[73.2106581122849,20.120451386782353],[73.21315384234998,20.09103286835736],[73.20433503539171,20.078717157276635],[73.18929291843567,20.07734591739746],[73.18748821021639,20.059198308665078],[73.17085165549625,20.052071923675122],[73.13196787360727,20.081757718849808],[73.11078349714994,20.074431801826677],[73.10504453000729,20.088317672112993],[73.05585257484312,20.098996269262575],[73.0526971561694,20.06446101129011],[73.03961630851526,20.06708978826351],[73.00840911042944,20.108189369071294],[72.99249566358041,20.11766868289225],[72.97191388330388,20.114667051285657],[72.9604446671684,20.13402639549916],[72.97401672350136,20.15830214708457],[72.97694733697858,20.180655035037343],[72.96172837318417,20.184252949460976],[72.96161476684344,20.20875236311854],[72.96563935855514,20.224765397524504],[72.95396352631106,20.2368835924543],[72.93086148477572,20.242743971705963],[72.91186488422598,20.2689529017707],[72.91697149849406,20.281256717404325],[72.94165300916592,20.29251063120157],[72.9627732908277,20.271200817477332],[72.98176590016263,20.27686506084146],[72.99364263792506,20.292431172652243],[73.03576885379778,20.29232794876898],[73.03826321932193,20.31729137849011],[73.06726214194543,20.329407791643803],[73.07746265842201,20.322893809257174],[73.09084316788523,20.34479256530232],[73.10543914464021,20.349781117418516],[73.1088189184545,20.323750111044884],[73.10142423047907,20.30279311807459],[73.12408175866238,20.303593361580983],[73.12936717629954,20.31743167434618],[73.15140779274968,20.31719143979193],[73.16407139271725,20.297501181906533],[73.16574217111084,20.28294793875436],[73.14461803837143,20.28503889667066],[73.14248506957767,20.273827021027934],[73.11486214408556,20.25650732963675],[73.09733088530875,20.23602675602697],[73.06021744119793,20.223259407479194],[73.05365650389221,20.20531309779593],[73.06289318196784,20.1696740037842],[73.07953886716452,20.17315987322756],[73.09052043105137,20.16032188502125],[73.10695320025438,20.157885324376554],[73.14212401151215,20.177284843703337],[73.13324475242683,20.205688170695193],[73.15743336828208,20.198268930266025],[73.19906341857222,20.194378558825964],[73.21797072478608,20.18584925792529],[73.21467577618917,20.16971289929672],[73.18563334635985,20.15576018015805],[73.1889493909929,20.12759631585453],[73.2106581122849,20.120451386782353]]],[[[72.82123644146087,20.367663040128463],[72.83092644446313,20.411019344408626],[72.82774189252643,20.431666591152663],[72.84094190619457,20.45821336862019],[72.85555080611327,20.467484334508974],[72.88806502508972,20.460613697680984],[72.89022884292865,20.438557075738643],[72.87019385997905,20.439884825336854],[72.85732146279337,20.41882703707105],[72.87025009541415,20.413755690392104],[72.89796314977701,20.420512898004695],[72.9026568507298,20.405698150775635],[72.88282652556151,20.397752839925264],[72.89073783914841,20.37255161915002],[72.8767420798353,20.369674875165156],[72.84583815478602,20.374792510039484],[72.82123644146087,20.367663040128463]]],[[[71.0074547796766,20.737382930228392],[70.9929559054139,20.730160209029517],[70.97881086945677,20.704851047706047],[70.95339584572787,20.703797359775223],[70.92811875561593,20.712122405026875],[70.91339912037215,20.699363146552667],[70.87668530618852,20.71390944858722],[70.88262027674303,20.724091336896947],[70.91596780441803,20.732908854898678],[70.92029679026379,20.742846013918975],[70.93858635380286,20.732287062634835],[70.95994600504685,20.73663658921548],[70.97490911607196,20.727383706090205],[71.0074547796766,20.737382930228392]]]]}},{"type":"Feature","geometry":{"type":"Polygon","coordinates":[[[78.3986,32.5257],[78.2946,32.5041],[78.4052,32.6194],[78.3877,32.7569],[78.0158,32.6198],[77.7131,32.9826],[77.339,32.8168],[77.1497,32.9781],[76.973,32.9998],[76.6287,33.4349],[76.3362,33.6106],[76.2255,33.5474],[76.2711,33.7309],[76.0261,33.9934],[75.8519,33.9814],[75.6918,34.2314],[75.595,34.1982],[75.3934,34.2951],[75.2878,34.5979],[74.3574,34.7897],[74.5678,34.873],[74.5873,35.0096],[74.5154,35.0948],[74.2532,35.0374],[73.9164,35.2117],[73.7309,35.2168],[73.6996,35.3578],[73.7852,35.5238],[73.272,35.6292],[73.1386,35.718],[73.1523,35.842],[73.0784,35.8857],[72.5944,35.875],[72.5331,35.9168],[72.5953,36.0267],[72.5311,36.0718],[72.5629,36.2159],[72.9913,36.4575],[73.1117,36.6094],[73.0842,36.6817],[73.4355,36.7439],[73.9,36.7061],[73.6895,36.9115],[74.0513,36.8059],[74.4285,36.9891],[74.5777,36.9479],[74.5809,37.0428],[74.6841,37.0742],[74.9131,36.9085],[75.3318,37.0546],[75.4779,36.8062],[75.6154,36.761],[75.7683,36.5727],[76.3512,36.3593],[76.4805,36.2109],[76.6961,36.1354],[76.7995,36.0485],[76.7216,35.9529],[76.8026,35.8499],[77.3571,35.7172],[77.4824,35.5359],[77.3209,35.5363],[77.3765,35.4779],[77.7361,35.5227],[77.9705,35.4577],[77.9638,35.6034],[78.1359,35.5384],[78.2719,35.7215],[78.7174,35.8678],[79.138,35.8381],[79.2403,35.9863],[79.3765,35.9948],[79.4241,35.8946],[79.7445,35.7999],[79.9975,35.8373],[80.104,35.6826],[80.293,35.602],[80.327,35.4721],[80.0674,34.7144],[79.7704,34.6221],[79.7924,34.4847],[79.507,34.4739],[79.5827,34.238],[79.4182,34.014],[79.1773,34.0717],[78.9042,33.9759],[79.104,33.6134],[78.9178,33.6333],[78.9522,33.3808],[79.4534,33.2583],[79.334,33.0161],[79.6253,32.7373],[79.4466,32.5323],[79.3165,32.59],[78.9775,32.339],[78.8258,32.4385],[78.7677,32.6861],[78.4258,32.5311],[78.3986,32.5257]]]},"properties":{"ST_NM":"Ladakh"}},{"type":"Feature","geometry":{"type":"Polygon","coordinates":[[[76.7712,33.2496],[76.7469,33.1792],[76.4104,33.1866],[75.9539,32.8734],[75.8423,32.9293],[75.9159,32.613],[75.5334,32.2777],[75.0269,32.4965],[74.7114,32.4782],[74.6496,32.5973],[74.7046,32.8418],[74.5936,32.7564],[74.3537,32.763],[73.631,33.0862],[73.6574,33.2048],[73.5578,33.3681],[73.6302,33.5375],[73.5606,33.6211],[73.5854,33.899],[73.3931,34.3806],[73.447,34.5738],[73.6501,34.5678],[73.7493,34.7867],[74.0295,34.8771],[74.0943,35.097],[74.2687,35.035],[74.4983,35.1067],[74.5873,35.0096],[74.5678,34.873],[74.3574,34.7897],[75.2878,34.5979],[75.3934,34.2951],[75.595,34.1982],[75.6918,34.2314],[75.8519,33.9814],[76.0261,33.9934],[76.2711,33.7309],[76.2255,33.5474],[76.3362,33.6106],[76.4473,33.5644],[76.7543,33.2488],[76.7712,33.2496]]]},"properties":{"ST_NM":"Jammu & Kashmir"}},{"type":"Feature","geometry":{"type":"Polygon","coordinates":[[[83.3299,24.1017],[83.5082,24.0312],[83.5689,23.8667],[83.7076,23.8175],[83.7771,23.608],[83.9397,23.5705],[84.0087,23.6279],[83.9623,23.3854],[84.0744,23.3336],[84.0401,23.137],[84.1495,22.9654],[84.1858,23.0271],[84.3962,22.9259],[84.221,22.668],[84.0116,22.576],[84.0046,22.3736],[83.6659,22.2327],[83.5627,22.103],[83.5909,21.8512],[83.469,21.7869],[83.4181,21.6799],[83.4868,21.6433],[83.3928,21.6273],[83.338,21.502],[83.4069,21.352],[83.2742,21.3773],[83.1388,21.1094],[82.965,21.1932],[82.6366,21.1479],[82.4697,20.8339],[82.3521,20.8885],[82.3365,20.5539],[82.438,20.4342],[82.401,20.0546],[82.71,19.997],[82.7181,19.8536],[82.5832,19.7792],[82.6038,19.8663],[82.4507,19.9094],[82.3453,19.8359],[82.2375,20.0035],[82.0325,20.0158],[81.9456,20.1052],[81.865,20.0267],[81.8518,19.9232],[82.0662,19.7832],[82.0292,19.5076],[82.1893,19.4154],[82.1675,19.1364],[82.246,18.9191],[82.085,18.7186],[81.9016,18.6606],[81.963,18.5948],[81.7503,18.3536],[81.5312,18.2653],[81.3933,17.7947],[81.1683,17.8557],[81.0466,17.7824],[80.979,18.1788],[80.8667,18.1403],[80.8236,18.2395],[80.7368,18.1772],[80.7917,18.2509],[80.6376,18.5226],[80.4892,18.6308],[80.3431,18.5981],[80.2443,18.7563],[80.3545,18.8266],[80.2693,18.9501],[80.3939,19.2448],[80.5626,19.399],[80.6127,19.3094],[80.7599,19.2915],[80.8984,19.4818],[80.6703,19.6092],[80.6764,19.6994],[80.5465,19.8177],[80.4049,19.7937],[80.5058,19.8705],[80.4113,19.9384],[80.5236,19.9337],[80.5567,20.0698],[80.4018,20.1473],[80.3981,20.2441],[80.6264,20.3325],[80.6228,20.5889],[80.481,20.6184],[80.5875,20.6832],[80.5481,20.9117],[80.4258,21.0059],[80.4643,21.1749],[80.6796,21.2988],[80.7338,21.7286],[80.8386,21.8003],[80.9079,22.1096],[81.0086,22.0684],[81.11,22.4356],[81.3382,22.5204],[81.3964,22.4401],[81.6287,22.5444],[81.7716,22.6764],[81.7757,22.8745],[81.9463,22.9568],[81.9295,23.0617],[82.1613,23.1432],[82.1917,23.3269],[81.9849,23.4149],[81.9233,23.5327],[81.7358,23.5661],[81.627,23.4821],[81.5767,23.5854],[81.6959,23.7214],[81.6102,23.9041],[81.8234,23.8079],[81.9215,23.8709],[82.5253,23.7841],[82.8103,23.9629],[82.9543,23.8708],[83.1415,23.8849],[83.3228,24.1063],[83.3299,24.1017]]]},"properties":{"ST_NM":"Chhattisgarh"}},{"type":"Feature","geometry":{"type":"Polygon","coordinates":[[[77.2098,28.8579],[77.326,28.7099],[77.3268,28.4901],[77.1744,28.4047],[77.0804,28.5181],[76.8796,28.5047],[76.8396,28.5825],[76.9446,28.6331],[76.9508,28.8183],[77.173,28.8573],[77.2098,28.8579]]]},"properties":{"ST_NM":"Delhi"}},{"type":"Feature","geometry":{"type":"Polygon","coordinates":[[[74.1184,15.652],[74.252,15.6543],[74.336,15.2956],[74.2523,15.251],[74.3142,15.1804],[74.2524,14.9588],[74.0857,14.9006],[73.9236,15.0921],[73.8793,15.3634],[73.8082,15.3771],[73.9184,15.4259],[73.7693,15.4914],[73.6754,15.727],[73.8565,15.8008],[73.9908,15.6115],[74.0838,15.6341],[74.1184,15.652]]]},"properties":{"ST_NM":"Goa"}},{"type":"Feature","geometry":{"type":"Polygon","coordinates":[[[77.5856,30.3796],[77.1202,29.755],[77.1341,29.0952],[77.2281,28.8812],[76.9508,28.8183],[76.9446,28.6331],[76.8396,28.5825],[76.8914,28.5008],[77.0804,28.5181],[77.1744,28.4047],[77.3454,28.5133],[77.4776,28.4191],[77.5486,28.176],[77.4743,28.0875],[77.545,27.9536],[77.2524,27.7907],[77.0448,27.8218],[77.0857,27.7381],[77.0001,27.737],[76.9791,27.6536],[76.8942,27.7179],[76.9705,28.1384],[76.8749,28.2178],[76.5447,27.9637],[76.5438,28.0342],[76.4547,28.0423],[76.4757,28.1486],[76.2923,28.1792],[76.3423,28.0306],[76.1895,28.0565],[76.1604,27.9984],[76.2171,27.8167],[75.9714,27.852],[75.9327,27.9295],[76.0408,28.074],[75.946,28.1077],[76.0954,28.1509],[75.5615,28.6132],[75.4734,28.9234],[75.5206,29.0044],[75.3912,29.0627],[75.4106,29.2555],[75.0751,29.2299],[74.8505,29.4036],[74.6042,29.3273],[74.5366,29.4245],[74.623,29.531],[74.6161,29.7522],[74.4772,29.7453],[74.561,29.8696],[74.5272,29.9428],[74.6468,29.9043],[74.8064,29.9921],[74.9905,29.868],[75.0888,29.9172],[75.1007,29.8068],[75.2103,29.8329],[75.1679,29.667],[75.2421,29.5459],[75.4616,29.8077],[75.5721,29.7433],[75.8352,29.8144],[75.9844,29.7271],[76.2438,29.8524],[76.1782,29.9422],[76.2274,30.1445],[76.3399,30.0987],[76.4218,30.1924],[76.547,30.0762],[76.6533,30.2011],[76.5566,30.2623],[76.7483,30.3525],[76.735,30.4191],[76.9394,30.3948],[76.8864,30.4297],[76.926,30.6101],[76.8325,30.6632],[76.857,30.7948],[76.7767,30.9043],[76.8246,30.9272],[77.1641,30.6861],[77.1243,30.5651],[77.2078,30.4744],[77.5557,30.3901],[77.5856,30.3796]]]},"properties":{"ST_NM":"Haryana"}},{"type":"Feature","geometry":{"type":"Polygon","coordinates":[[[78.3986,32.5257],[78.5348,32.4144],[78.4548,32.2422],[78.6085,32.2143],[78.6118,32.119],[78.7756,31.9875],[78.7057,31.774],[78.8469,31.608],[78.7205,31.5073],[78.7977,31.4435],[78.7512,31.3633],[79.0065,31.1192],[78.4837,31.199],[78.3703,31.2864],[77.9079,31.1541],[77.7041,30.7656],[77.8185,30.5081],[77.5856,30.3796],[77.2078,30.4744],[77.1243,30.5651],[77.1641,30.6861],[76.9149,30.8897],[76.6247,30.9988],[76.6454,31.2091],[76.3792,31.4284],[76.3112,31.3195],[76.191,31.3],[75.9115,31.9399],[75.5943,32.0791],[75.6731,32.1588],[75.6179,32.2367],[75.9322,32.399],[75.8344,32.5118],[75.9261,32.7456],[75.8157,32.8616],[75.8423,32.9293],[75.9539,32.8734],[76.4104,33.1866],[76.7469,33.1792],[76.7927,33.2566],[76.973,32.9998],[77.1497,32.9781],[77.339,32.8168],[77.7131,32.9826],[78.0158,32.6198],[78.3877,32.7569],[78.4052,32.6194],[78.2946,32.5041],[78.3725,32.5088],[78.3986,32.5257]]]},"properties":{"ST_NM":"Himachal Pradesh"}},{"type":"Feature","geometry":{"type":"Polygon","coordinates":[[[87.7114,25.2577],[87.9611,24.9227],[87.8228,24.7701],[87.9075,24.7216],[87.9133,24.5972],[87.7717,24.5837],[87.8238,24.4584],[87.6392,24.214],[87.6937,24.1486],[87.4996,24.1157],[87.4402,23.9816],[87.2475,24.0453],[87.2951,23.9013],[87.2407,23.8258],[86.8935,23.8771],[86.7985,23.6884],[86.4618,23.6298],[86.3101,23.4118],[86.042,23.5862],[86.0256,23.4863],[85.8676,23.4647],[85.8206,23.2704],[85.8951,23.155],[86.0375,23.1471],[86.2244,22.9946],[86.5492,22.9784],[86.4362,22.9229],[86.4194,22.791],[86.6193,22.6785],[86.6585,22.5757],[86.7658,22.5757],[86.751,22.4564],[86.8871,22.2576],[86.7569,22.2113],[86.4994,22.3463],[86.411,22.3198],[86.0454,22.5675],[85.9603,22.4614],[86.0314,22.1925],[85.9139,21.98],[85.766,21.9949],[85.8074,22.1161],[85.6902,22.0609],[85.4123,22.1616],[85.2391,22.0094],[84.9841,22.0949],[85.118,22.3176],[85.0777,22.4775],[84.2913,22.3429],[84.0091,22.5261],[84.084,22.6382],[84.221,22.668],[84.3959,22.9389],[84.1858,23.0271],[84.1495,22.9654],[84.0401,23.137],[84.0744,23.3336],[83.9623,23.3854],[84.0087,23.6279],[83.9397,23.5705],[83.7771,23.608],[83.7076,23.8175],[83.5689,23.8667],[83.5082,24.0312],[83.3299,24.1017],[83.4479,24.3711],[83.4015,24.5035],[83.8727,24.5322],[84.0084,24.6428],[84.1039,24.4809],[84.2981,24.5593],[84.2972,24.4497],[84.5009,24.2876],[84.5675,24.4092],[84.6653,24.3916],[84.8022,24.5306],[84.9166,24.3733],[85.0988,24.3735],[85.2921,24.5237],[85.6691,24.5798],[85.7416,24.8198],[85.9383,24.7347],[86.0553,24.7797],[86.1246,24.6113],[86.3177,24.5775],[86.2761,24.4659],[86.4453,24.3679],[86.6032,24.602],[87.0511,24.6086],[87.1461,25.009],[87.2955,25.0886],[87.3345,25.2162],[87.4781,25.1944],[87.5519,25.3327],[87.7113,25.2747],[87.7114,25.2577]]]},"properties":{"ST_NM":"Jharkhand"}},{"type":"Feature","geometry":{"type":"MultiPolygon","coordinates":[[[[79.7814,11.9028],[79.7965,11.895],[79.7851,11.863],[79.7705,11.8909],[79.7814,11.9028]]],[[[79.2114,9.2507],[79.2214,9.2406],[79.1932,9.2235],[79.1756,9.2438],[79.1957,9.2575],[79.2114,9.2507]]],[[[79.8738,12.0426],[79.8406,11.9558],[79.7493,11.9222],[79.7476,12.0078],[79.6916,11.9514],[79.8077,11.8364],[79.7198,11.785],[79.7958,11.7855],[79.7572,11.5575],[79.8431,11.3512],[79.8544,10.9833],[79.7209,10.9692],[79.8507,10.8278],[79.8764,10.2954],[79.3003,10.265],[79.2287,10.1493],[79.266,10.0393],[78.899,9.4912],[79.0665,9.298],[79.3302,9.3197],[79.3917,9.1898],[78.9807,9.2745],[78.4151,9.1141],[78.1721,8.8838],[78.1994,8.7677],[78.0652,8.3729],[77.5559,8.0766],[77.3153,8.1222],[77.0978,8.2925],[77.2838,8.5469],[77.179,8.7307],[77.2567,8.8782],[77.1493,9.0097],[77.4123,9.5091],[77.3545,9.6042],[77.1677,9.6151],[77.2728,9.9643],[77.2012,10.1072],[77.2953,10.2185],[77.2353,10.3529],[76.9841,10.2223],[76.8299,10.3032],[76.8117,10.6196],[76.8821,10.639],[76.9073,10.7834],[76.6591,10.9306],[76.7666,11.0292],[76.7355,11.2157],[76.4584,11.1878],[76.5478,11.359],[76.2472,11.468],[76.2334,11.5679],[76.5116,11.7051],[76.5696,11.6182],[76.8564,11.5994],[76.9088,11.7952],[77.0129,11.8147],[77.105,11.7329],[77.2498,11.8131],[77.428,11.7671],[77.4928,11.9414],[77.669,11.9492],[77.7755,12.1185],[77.4711,12.2436],[77.6205,12.3826],[77.5989,12.6672],[77.7404,12.6737],[77.836,12.8704],[78.0765,12.8397],[78.2309,12.7607],[78.2106,12.6861],[78.4717,12.6323],[78.7145,13.0687],[79.1631,13.0203],[79.2269,13.1589],[79.3099,13.112],[79.4316,13.1893],[79.4361,13.3502],[79.7598,13.2075],[79.7392,13.2914],[79.9313,13.3515],[80.0466,13.4937],[79.9997,13.5423],[80.2422,13.4725],[80.2683,13.5645],[80.3464,13.3154],[80.2551,12.7831],[80.1377,12.4106],[79.8846,12.0645],[79.8738,12.0426]],[[79.6928,12.0353],[79.6573,11.9913],[79.7048,12.032],[79.6928,12.0353]],[[79.6384,11.9863],[79.6253,11.903],[79.6483,11.9673],[79.6384,11.9863]],[[79.6865,11.9732],[79.6622,11.9691],[79.6545,11.9537],[79.6765,11.9485],[79.6865,11.9732]],[[79.6175,11.8839],[79.6285,11.8698],[79.6264,11.8548],[79.6568,11.8521],[79.6627,11.8673],[79.6485,11.8705],[79.6411,11.8866],[79.6175,11.8839]],[[79.6473,11.8442],[79.6463,11.8163],[79.6634,11.813],[79.6713,11.8236],[79.6617,11.8393],[79.6473,11.8442]]]]},"properties":{"ST_NM":"Tamil Nadu"}},{"type":"Feature","geometry":{"type":"MultiPolygon","coordinates":[[[[79.396,25.0322],[79.3646,25.1281],[79.4239,25.045],[79.396,25.0322]]],[[[80.0651,28.8367],[80.5235,28.555],[80.5554,28.6913],[81.2106,28.3607],[81.3181,28.145],[81.4444,28.1618],[81.8993,27.8536],[82.0699,27.9233],[82.4492,27.6797],[82.7086,27.716],[82.7351,27.5027],[83.1883,27.4539],[83.2962,27.334],[83.3882,27.3764],[83.3923,27.4776],[83.8308,27.3699],[83.987,27.1976],[83.9465,27.0918],[84.0288,27.0873],[84.0524,26.9064],[84.2541,26.8566],[84.2549,26.7267],[84.4106,26.6702],[84.2847,26.5996],[84.0882,26.6362],[83.9108,26.4497],[84.1755,26.3732],[84.1769,26.265],[84.0123,26.232],[84.056,26.1001],[84.534,25.8763],[84.6347,25.728],[84.5202,25.675],[84.3366,25.7436],[84.2941,25.6602],[84.1051,25.7212],[83.8079,25.4091],[83.3536,25.1886],[83.3577,24.8714],[83.5437,24.6283],[83.5033,24.5254],[83.4015,24.5035],[83.4479,24.3711],[83.2079,23.9214],[82.9366,23.8771],[82.6646,24.1298],[82.7443,24.1656],[82.7738,24.6418],[82.4277,24.7022],[82.4223,24.5994],[82.3011,24.6077],[82.2556,24.7494],[81.9442,24.8413],[81.8909,24.9958],[81.6117,25.0563],[81.5787,25.1908],[81.4992,25.077],[81.292,25.1619],[81.1396,24.8875],[80.95,24.9645],[80.8122,24.9225],[80.8823,25.1831],[80.7184,25.1305],[80.775,25.0546],[80.6019,25.1505],[80.4796,24.9759],[80.449,25.0787],[80.3943,25.0088],[80.2737,25.026],[80.4317,25.1776],[80.2639,25.4241],[79.8772,25.2509],[79.8438,25.0944],[79.5692,25.1718],[79.4827,25.0797],[79.4053,25.1062],[79.4819,25.2686],[79.2998,25.3377],[79.3136,25.1361],[79.1658,25.1075],[79.0903,25.1908],[79.031,25.1384],[79.0132,25.274],[79.0059,25.195],[78.8819,25.1569],[78.9615,25.3435],[78.8841,25.3441],[78.8428,25.2277],[78.7885,25.3001],[78.9875,25.3813],[78.9089,25.4424],[78.9394,25.5572],[78.8415,25.5125],[78.8481,25.4297],[78.7328,25.4842],[78.803,25.4371],[78.7746,25.353],[78.6582,25.441],[78.4383,25.2746],[78.578,25.2527],[78.632,24.9621],[78.7899,24.8104],[78.757,24.5989],[78.8831,24.6414],[78.9715,24.3476],[78.7894,24.1771],[78.502,24.3903],[78.414,24.273],[78.3297,24.3257],[78.3658,24.386],[78.226,24.5198],[78.2768,24.6619],[78.1723,24.8778],[78.4427,25.1304],[78.301,25.362],[78.4443,25.5634],[78.8105,25.6194],[78.7528,25.7503],[79.0027,26.0667],[78.9521,26.1293],[79.135,26.3248],[79.1295,26.4404],[79.0526,26.4537],[78.9933,26.6773],[78.7215,26.7964],[78.5775,26.7485],[78.3615,26.8691],[78.2519,26.8171],[78.2206,26.9434],[78.0323,26.8652],[77.7606,26.9326],[77.6076,26.8278],[77.5012,26.8444],[77.4546,26.7419],[77.3979,26.8304],[77.7622,27.001],[77.5264,27.0782],[77.6811,27.1944],[77.6125,27.3319],[77.4395,27.3907],[77.3171,27.6068],[77.2837,27.8011],[77.5294,27.9255],[77.4743,28.0875],[77.5468,28.238],[77.4776,28.4191],[77.2971,28.566],[77.326,28.7099],[77.1994,28.7981],[77.2329,28.9187],[77.1341,29.0952],[77.0867,29.5935],[77.1253,29.7695],[77.2764,30.0376],[77.4058,30.0894],[77.576,30.3974],[77.6472,30.4048],[77.9472,30.2343],[77.7337,29.9553],[77.799,29.6862],[77.9455,29.7131],[77.9675,29.5801],[78.3357,29.7967],[78.4274,29.7646],[78.6177,29.5581],[78.9253,29.4339],[78.7313,29.3136],[78.9269,29.1181],[79.1265,29.1329],[79.1622,29.0254],[79.372,28.9858],[79.4256,28.8665],[79.8277,28.8845],[79.8243,28.8073],[79.8881,28.8367],[79.9544,28.7229],[80.0592,28.8169],[80.0651,28.8367]]]]},"properties":{"ST_NM":"Uttar Pradesh"}},{"type":"Feature","geometry":{"type":"MultiPolygon","coordinates":[[[[88.2366,21.4869],[88.2288,21.4837],[88.2079,21.498],[88.207,21.5274],[88.2275,21.5387],[88.243,21.4971],[88.2366,21.4869]]],[[[88.1009,21.9705],[88.0884,21.9738],[88.0981,22.0019],[88.1298,22.0173],[88.1348,22.0035],[88.1221,21.9854],[88.1009,21.9705]]],[[[89.5986,25.9514],[89.5801,25.9349],[89.5745,25.9478],[89.5861,25.9624],[89.5986,25.9514]]],[[[88.7746,21.9448],[88.787,21.9482],[88.8026,21.9306],[88.7582,21.935],[88.7432,21.9315],[88.7252,21.9516],[88.7277,21.9799],[88.7501,21.9755],[88.7499,21.9587],[88.7746,21.9448]]],[[[88.0386,21.5779],[87.9913,21.5164],[88.0215,21.5938],[88.0386,21.5779]]],[[[88.5194,21.5864],[88.5283,21.5278],[88.5032,21.5985],[88.5194,21.5864]]],[[[88.198,21.5421],[88.1727,21.5534],[88.1609,21.5922],[88.1671,21.5984],[88.1895,21.5784],[88.198,21.5421]]],[[[87.9281,21.6892],[87.9212,21.6979],[87.9324,21.7205],[87.9425,21.7196],[87.9281,21.6892]]],[[[88.4868,21.8023],[88.472,21.7993],[88.4596,21.8141],[88.4825,21.835],[88.4917,21.8317],[88.4976,21.8123],[88.4868,21.8023]]],[[[88.3594,21.8048],[88.2623,21.8002],[88.351,21.8212],[88.3594,21.8048]]],[[[87.9502,21.5923],[87.9765,21.6692],[87.9769,21.6086],[87.9502,21.5923]]],[[[89.0067,21.6593],[88.9912,21.6586],[88.994,21.6887],[89.0046,21.703],[89.0163,21.6913],[89.0067,21.6593]]],[[[88.8378,21.605],[88.8955,21.5392],[88.8297,21.6054],[88.8378,21.605]]],[[[88.7736,21.6328],[88.7931,21.5827],[88.7121,21.5785],[88.7706,21.652],[88.7736,21.6328]]],[[[88.5846,21.6015],[88.5136,21.5988],[88.5652,21.6249],[88.5846,21.6015]]],[[[88.2057,21.6718],[88.2046,21.6039],[88.1819,21.6863],[88.2057,21.6718]]],[[[88.9608,21.6423],[88.9859,21.6416],[88.9924,21.6263],[88.9693,21.6194],[88.9402,21.6408],[88.9471,21.6624],[88.9608,21.6423]]],[[[88.6051,21.6149],[88.5865,21.6191],[88.5595,21.6413],[88.5718,21.6622],[88.5821,21.6632],[88.6033,21.6325],[88.6051,21.6149]]],[[[88.3206,21.6069],[88.3098,21.7055],[88.3434,21.6304],[88.3206,21.6069]]],[[[88.4063,21.7328],[88.4057,21.6064],[88.3956,21.7422],[88.4063,21.7328]]],[[[88.5423,21.7012],[88.5464,21.6408],[88.5207,21.7029],[88.5423,21.7012]]],[[[88.7401,21.6577],[88.7262,21.6439],[88.6861,21.6784],[88.6893,21.7123],[88.7103,21.6746],[88.7401,21.6577]]],[[[88.9664,21.7407],[89.0201,21.5992],[88.95,21.7574],[88.9664,21.7407]]],[[[88.9204,21.6311],[88.8802,21.7404],[88.9387,21.684],[88.9204,21.6311]]],[[[89.0148,21.7781],[89.0728,21.6125],[88.9568,21.7665],[89.0116,21.8071],[89.0148,21.7781]]],[[[88.8375,21.7661],[88.836,21.6194],[88.8153,21.7529],[88.8375,21.7661]]],[[[88.45,21.7914],[88.4386,21.6013],[88.4404,21.7873],[88.45,21.7914]]],[[[88.1258,21.6736],[88.0335,21.6629],[88.0797,21.7809],[88.1243,21.687],[88.1258,21.6736]]],[[[88.3718,21.7181],[88.3853,21.7191],[88.3896,21.7044],[88.3626,21.6866],[88.3419,21.7057],[88.3477,21.7213],[88.3452,21.7582],[88.3668,21.7608],[88.3591,21.7386],[88.3718,21.7181]]],[[[88.5553,21.7615],[88.5906,21.6608],[88.5089,21.744],[88.5671,21.7792],[88.5553,21.7615]]],[[[88.8951,21.7845],[88.9111,21.7344],[88.8449,21.8582],[88.8783,21.8056],[88.8951,21.7845]]],[[[88.7773,21.8688],[88.7892,21.6537],[88.6928,21.7411],[88.7426,21.896],[88.7773,21.8688]]],[[[88.8208,21.764],[88.8091,21.7556],[88.7915,21.7566],[88.7859,21.7727],[88.7975,21.784],[88.8204,21.8192],[88.8288,21.8106],[88.8208,21.764]]],[[[88.6135,21.786],[88.611,21.707],[88.5959,21.785],[88.6135,21.786]]],[[[88.5949,21.7232],[88.5816,21.7268],[88.58,21.7521],[88.6122,21.7407],[88.5949,21.7232]]],[[[88.3019,21.719],[88.2854,21.7347],[88.2989,21.755],[88.3019,21.719]]],[[[88.3845,21.7453],[88.363,21.738],[88.3719,21.7647],[88.3857,21.7603],[88.3845,21.7453]]],[[[88.4243,21.7978],[88.4202,21.7266],[88.4211,21.8073],[88.4243,21.7978]]],[[[88.354,21.796],[88.3236,21.7253],[88.334,21.7957],[88.354,21.796]]],[[[88.1329,21.8734],[88.1367,21.678],[88.1207,21.8663],[88.1329,21.8734]]],[[[88.982,21.8961],[89.0276,21.8316],[88.966,21.7803],[88.974,21.8943],[88.982,21.8961]]],[[[88.0942,21.867],[88.0916,21.8937],[88.1037,21.8897],[88.0942,21.867]]],[[[88.5203,21.8282],[88.5038,21.8275],[88.4953,21.8423],[88.5027,21.853],[88.5187,21.8518],[88.5203,21.8282]]],[[[88.6079,21.7982],[88.5955,21.799],[88.5768,21.8154],[88.5774,21.8342],[88.5886,21.8487],[88.6145,21.8269],[88.6053,21.8185],[88.6079,21.7982]]],[[[88.6325,21.8698],[88.641,21.789],[88.6193,21.8968],[88.6325,21.8698]]],[[[88.9435,21.9149],[88.9655,21.8065],[88.9007,21.7622],[88.8378,21.9091],[88.9153,21.933],[88.9435,21.9149]]],[[[88.8375,21.8778],[88.8316,21.8699],[88.8059,21.8784],[88.8174,21.9006],[88.8328,21.8971],[88.8375,21.8778]]],[[[88.6384,21.9222],[88.6674,21.9134],[88.6516,21.8775],[88.6385,21.8768],[88.6263,21.8987],[88.6384,21.9222]]],[[[88.5552,21.8183],[88.5363,21.8313],[88.5335,21.8464],[88.5575,21.8515],[88.5498,21.8323],[88.5552,21.8183]]],[[[88.4897,21.8476],[88.3989,21.8065],[88.4204,21.9005],[88.4871,21.864],[88.4897,21.8476]]],[[[88.7374,21.9227],[88.8087,21.8951],[88.7171,21.9165],[88.7374,21.9227]]],[[[88.1301,21.9001],[88.1214,21.9006],[88.1105,21.9233],[88.1221,21.9328],[88.1415,21.9206],[88.1301,21.9001]]],[[[88.7455,27.142],[88.8638,27.1102],[88.8709,26.964],[89.0178,26.9371],[89.1289,26.8065],[89.3697,26.8573],[89.8518,26.6972],[89.8695,26.614],[89.8564,26.385],[89.7338,26.2928],[89.7085,26.1543],[89.6354,26.2234],[89.6458,26.0631],[89.5586,25.9647],[89.1541,26.1414],[89.0905,26.3917],[88.9572,26.4593],[88.9108,26.3704],[89.045,26.2412],[88.8758,26.2868],[88.839,26.232],[88.7934,26.3103],[88.6676,26.2598],[88.7426,26.3473],[88.4302,26.5458],[88.4095,26.6314],[88.3306,26.4859],[88.4608,26.4667],[88.5174,26.3519],[88.1771,26.1479],[88.0869,25.9166],[88.1523,25.7762],[88.2694,25.8082],[88.646,25.4786],[88.8,25.5242],[88.8401,25.3635],[89.0088,25.2942],[88.9215,25.1655],[88.444,25.1975],[88.4009,24.9507],[88.3305,24.8723],[88.1375,24.936],[88.1634,24.8505],[88.0244,24.6881],[88.1916,24.4755],[88.7261,24.2963],[88.6971,24.1191],[88.7689,23.9826],[88.5985,23.8693],[88.5584,23.6502],[88.7931,23.5021],[88.7186,23.2548],[88.9862,23.2026],[88.8692,23.1003],[88.8559,22.9619],[88.9695,22.844],[88.9123,22.7578],[88.9969,22.2844],[89.0947,22.1488],[89.0662,21.9416],[88.9326,21.9426],[88.9825,22.0843],[88.9159,21.9905],[88.9038,22.0642],[88.9012,21.931],[88.7635,21.9552],[88.7043,22.0796],[88.7679,22.147],[88.6876,22.0702],[88.7383,22.0137],[88.6333,21.9548],[88.6488,22.2478],[88.6067,21.918],[88.5196,21.8563],[88.5219,21.9436],[88.4101,21.9048],[88.3817,21.7951],[88.3547,21.8675],[88.2616,21.8173],[88.2571,21.5574],[88.1456,21.9591],[88.2192,22.1025],[88.0677,22.2557],[87.9905,22.2255],[88.1867,22.1046],[88.0601,22.0179],[88.0196,22.0719],[87.9488,21.8242],[87.4862,21.6098],[87.4444,21.7682],[87.2765,21.8052],[87.2359,21.9571],[87.0397,21.8674],[87.0282,22.0379],[86.7218,22.1468],[86.8881,22.2971],[86.751,22.4564],[86.7658,22.5757],[86.6585,22.5757],[86.6193,22.6785],[86.4194,22.791],[86.4362,22.9229],[86.5492,22.9784],[86.1855,23.0052],[85.8206,23.2704],[85.8761,23.4808],[86.0256,23.4863],[86.042,23.5862],[86.3101,23.4118],[86.4618,23.6298],[86.7985,23.6884],[86.8935,23.8771],[87.2407,23.8258],[87.2951,23.9013],[87.2475,24.0453],[87.4402,23.9816],[87.4996,24.1157],[87.6937,24.1486],[87.6392,24.214],[87.8238,24.4584],[87.7717,24.5837],[87.9133,24.5972],[87.9075,24.7216],[87.8228,24.7701],[87.9611,24.9227],[87.7114,25.2577],[87.8452,25.2634],[87.787,25.4493],[87.926,25.5387],[88.0715,25.5158],[88.0497,25.7022],[87.8108,25.928],[87.9797,26.1442],[88.2864,26.3318],[88.1824,26.5083],[88.2328,26.571],[88.1054,26.5511],[88.1864,26.774],[88.1331,26.9823],[87.9936,27.1047],[88.0148,27.2117],[88.1536,27.1098],[88.4306,27.0794],[88.5413,27.1818],[88.7346,27.1348],[88.7455,27.142]]]]},"properties":{"ST_NM":"West Bengal"}},{"type":"Feature","geometry":{"type":"Polygon","coordinates":[[[84.7647,19.0773],[84.1258,18.3112],[83.6111,18.0408],[83.2157,17.5937],[82.5939,17.2814],[82.3204,17.0582],[82.2482,16.9048],[82.3556,16.8578],[82.3602,16.9589],[82.3131,16.5623],[81.7195,16.3067],[81.3164,16.3105],[80.9359,15.7168],[80.8162,15.7133],[80.8114,15.8345],[80.6862,15.8819],[80.2822,15.6857],[80.0471,15.0831],[80.196,14.5865],[80.1272,14.1502],[80.2552,13.7794],[80.2422,13.4725],[79.9997,13.5423],[80.0466,13.4937],[79.9313,13.3515],[79.7392,13.2914],[79.7598,13.2075],[79.4361,13.3502],[79.4316,13.1893],[79.3099,13.112],[79.2269,13.1589],[79.1631,13.0203],[78.7145,13.0687],[78.6209,12.9913],[78.5547,12.6991],[78.3794,12.6251],[78.2106,12.6861],[78.2522,12.8606],[78.3602,12.937],[78.4681,12.8794],[78.4121,12.9436],[78.5873,13.2807],[78.3871,13.3318],[78.4022,13.5873],[78.2029,13.5688],[78.0664,13.6764],[78.1148,13.8629],[77.9559,13.831],[77.9875,13.9555],[77.8266,13.9448],[77.7151,13.7438],[77.6513,13.7841],[77.4553,13.6823],[77.4609,13.803],[77.1814,13.8699],[77.1847,13.9252],[77.1731,13.7621],[76.9969,13.7478],[77.0417,13.9335],[76.8945,14.1678],[77.026,14.1748],[77.0316,14.0569],[77.1411,14.0039],[77.3222,14.03],[77.4055,13.8895],[77.3567,14.1302],[77.517,14.1861],[77.4121,14.3365],[77.3926,14.1989],[77.2866,14.3401],[77.1389,14.34],[77.1149,14.2232],[76.9401,14.2446],[76.8848,14.3957],[76.9748,14.4854],[76.868,14.4741],[76.765,14.6022],[76.8696,14.9377],[76.7672,14.9749],[76.7861,15.0878],[77.0825,15.0061],[77.1692,15.1714],[76.9771,15.4898],[77.0305,15.6345],[77.1215,15.6311],[77.0252,15.8375],[77.0702,15.9078],[77.2489,15.9646],[78.045,15.9042],[78.1343,15.8366],[78.2625,16.0267],[78.4079,16.0748],[78.7855,16.0212],[78.8347,16.1452],[78.8895,16.0847],[79.0091,16.24],[79.2154,16.2262],[79.2617,16.567],[79.7728,16.7306],[79.9648,16.645],[80.0727,16.8165],[80.0174,16.915],[80.1873,17.02],[80.2837,17.0072],[80.3789,16.8188],[80.5702,16.7681],[80.6019,16.9186],[80.3714,16.9759],[80.3873,17.0713],[80.4649,17.0301],[80.58,17.1531],[80.8453,17.04],[80.9189,17.2198],[81.1712,17.231],[81.1904,17.3249],[81.3226,17.3746],[81.1245,17.5271],[80.8554,17.6019],[80.9286,17.7616],[81.0582,17.7331],[81.1683,17.8557],[81.6188,17.8241],[82.075,18.0759],[82.2645,17.9956],[82.3707,18.1489],[82.3092,18.2048],[82.3906,18.2987],[82.3625,18.4223],[82.4718,18.5433],[82.6367,18.2376],[82.8014,18.45],[83.0527,18.3807],[83.0872,18.5541],[82.999,18.6215],[83.1372,18.7863],[83.2172,18.7477],[83.4041,18.8449],[83.3088,18.9998],[83.4599,18.9557],[83.4653,19.0886],[83.536,19.0141],[83.6318,19.1407],[83.7534,18.9263],[83.7927,19.0189],[83.8945,18.8172],[84.0916,18.7602],[84.319,18.788],[84.4476,19.0039],[84.5669,19.0707],[84.5921,19.0232],[84.6688,19.1669],[84.7061,19.1166],[84.7647,19.0773]],[[82.226,16.7586],[82.3136,16.7303],[82.2175,16.7328],[82.226,16.7586]]]},"properties":{"ST_NM":"Andhra Pradesh"}},{"type":"Feature","properties":{"ST_NM":"Puducherry"},"geometry":{"type":"MultiPolygon","coordinates":[[[[79.85436081546587,10.983316684627638],[79.8518340701673,10.886741091661714],[79.8522777166451,10.830852732938824],[79.84128673482081,10.828006528052562],[79.8309799692057,10.827444928275833],[79.82099717740454,10.845624801550654],[79.80785451038753,10.855679066423402],[79.82482439307866,10.864891002659135],[79.8239514893373,10.884236225966214],[79.78988282110163,10.89040296702327],[79.77691765848981,10.89662405032671],[79.75827754537742,10.892804468475555],[79.7580812311485,10.909165430525926],[79.74288204376501,10.924347007641023],[79.72476320324908,10.929025896149748],[79.72085595127639,10.969159275767932],[79.75924084299254,10.960699121666975],[79.74671818959136,11.00263015096566],[79.77876265255631,10.997029891422416],[79.79384733887704,10.983145302030062],[79.8048867767261,10.998503227496997],[79.84019704604181,11.002115741134297],[79.85436081546587,10.983316684627638]]],[[[75.53767978256059,11.762642643543506],[75.54628271627125,11.756062818499737],[75.54237733818425,11.736960093191662],[75.55577670328528,11.727695321806593],[75.54723449209456,11.71588431937604],[75.52715720119005,11.720691305400976],[75.54025252160167,11.73474174869522],[75.53767978256059,11.762642643543506]]],[[[79.61747741425657,11.883881374607194],[79.64111825901112,11.886605746214917],[79.64853786355759,11.87052846559789],[79.66266529253514,11.867300430137107],[79.65678967726471,11.852118642847826],[79.62639623874027,11.854800209327415],[79.6284905440442,11.869791067147641],[79.61747741425657,11.883881374607194]]],[[[79.80699829015762,11.833580813060266],[79.79576112682633,11.785499854197658],[79.77015772728066,11.783470178081608],[79.75589372922707,11.775400794881882],[79.71981651155943,11.784993806868252],[79.72445909837258,11.810489309408242],[79.73688262717373,11.842305107945297],[79.79833623652146,11.827598680907963],[79.80699829015762,11.833580813060266]]],[[[79.64731887307323,11.844217656888707],[79.66172425517273,11.839308530713282],[79.67126195959838,11.823577284266769],[79.663436075795,11.813039913858724],[79.646286532742,11.816257312716079],[79.64731887307323,11.844217656888707]]],[[[82.2259974463797,16.758619784444434],[82.21747587308433,16.732766348619148],[82.24347233138084,16.72227357801618],[82.27038610253314,16.72192744955661],[82.28971766868266,16.72666788763096],[82.30549554358562,16.748263350505297],[82.31362025466323,16.73027328816636],[82.30509793307122,16.71239177912443],[82.2674713056931,16.69464532429966],[82.23904333609451,16.716315927558647],[82.20546106336437,16.717429051657962],[82.20584241706712,16.734927620005873],[82.21420068023708,16.75267858695922],[82.2259974463797,16.758619784444434]]],[[[79.8405729999714,11.955828715931101],[79.82264042692621,11.876523712898308],[79.80770216240354,11.836406568099394],[79.80060534230158,11.855314398723273],[79.78150381313678,11.855694715107502],[79.76395439940808,11.847348216493524],[79.77002630105966,11.874650377225313],[79.7573614200945,11.876111218463945],[79.75385950953755,11.850170382822654],[79.74031916014088,11.864391613355654],[79.71339985895972,11.860713446693252],[79.70995429792394,11.889188862421873],[79.72887800467994,11.890250891164229],[79.74064997372743,11.905469612213121],[79.71748098255057,11.928974550412898],[79.72084718910911,11.944898386226395],[79.69724088188227,11.941759852756737],[79.69159727899185,11.951351023982138],[79.72055235664297,11.9926887368449],[79.73338884996336,11.993256037657046],[79.74755996041995,12.0078337348639],[79.76231337411502,12.002732683049924],[79.76036347568798,11.989244215154885],[79.74276802689421,11.977849823471928],[79.74926133992365,11.922204865798708],[79.76092995779771,11.930739040192814],[79.7846600897016,11.95990581922332],[79.80328125285308,11.953181328294821],[79.80975301350225,11.975267180099818],[79.82480893397094,11.961566175043636],[79.8405729999714,11.955828715931101]],[[79.78143534534243,11.902808104912129],[79.77046783829316,11.890928076321662],[79.78506296434361,11.862958221660683],[79.79652019605487,11.89498956874575],[79.78143534534243,11.902808104912129]]],[[[79.6864862288429,11.97320707881271],[79.67654181846059,11.948477647565884],[79.65449099445385,11.953707328584041],[79.66216470454643,11.969087497871596],[79.6864862288429,11.97320707881271]]],[[[79.63839928591986,11.98629455132724],[79.64832302247422,11.96732852196303],[79.64727889085655,11.953428664625996],[79.66928783450642,11.937477283118863],[79.66885208960989,11.91841386138678],[79.65588542591321,11.907937644981384],[79.62526614463812,11.903048180058962],[79.62838070164452,11.919100730058338],[79.61842499315087,11.92608663835949],[79.6284881167963,11.945184480085846],[79.62746999320274,11.968075016351921],[79.61887811146501,12.001277939572075],[79.62924499413556,12.018692001060877],[79.64845030207191,12.019508886391536],[79.63839928591986,11.98629455132724]]],[[[79.6927597151392,12.035293215053818],[79.70476546175622,12.031984926332758],[79.70280772822323,12.011071047207638],[79.7183738558407,11.99519142224022],[79.69351707667039,11.989896158692517],[79.67205781214291,11.994763223183933],[79.6573008896283,11.99132706960921],[79.66136068002781,12.012296084743092],[79.67222553030139,12.009695395932832],[79.6927597151392,12.035293215053818]]],[[[79.85706671627314,12.006807197772092],[79.84046957244115,12.013271029925544],[79.84976470029905,12.051816570374996],[79.87379284829845,12.042623534488682],[79.85706671627314,12.006807197772092]]]]}},{"type":"Feature","geometry":{"type":"MultiPolygon","coordinates":[[[[80.66,21.3341],[80.6425,21.2497],[80.4643,21.1749],[80.4258,21.0059],[80.5562,20.8881],[80.5875,20.6832],[80.481,20.6184],[80.6228,20.5889],[80.6264,20.3325],[80.3981,20.2441],[80.4018,20.1473],[80.5567,20.0698],[80.5236,19.9337],[80.4113,19.9384],[80.5058,19.8705],[80.4049,19.7937],[80.5465,19.8177],[80.6764,19.6994],[80.6703,19.6092],[80.8984,19.4818],[80.7599,19.2915],[80.6127,19.3094],[80.5626,19.399],[80.3939,19.2448],[80.2738,18.9945],[80.3545,18.8266],[80.2729,18.723],[80.1123,18.6829],[79.9214,18.8097],[79.9383,19.0406],[79.8593,19.1081],[79.9446,19.1671],[79.9747,19.411],[79.7786,19.5997],[79.5008,19.5074],[79.2511,19.6159],[79.1897,19.4591],[78.9521,19.5489],[78.9555,19.6559],[78.8519,19.6586],[78.841,19.7619],[78.4851,19.7961],[78.307,19.9143],[78.3647,19.7812],[78.2627,19.6651],[78.3044,19.4561],[78.1925,19.4067],[78.1753,19.2376],[77.9435,19.3427],[77.8635,19.3041],[77.9027,19.2564],[77.7715,18.9792],[77.9483,18.8291],[77.7596,18.7067],[77.7385,18.5568],[77.5964,18.5489],[77.5285,18.4434],[77.571,18.3085],[77.3658,18.3071],[77.4141,18.3931],[77.327,18.4517],[77.1126,18.1568],[76.952,18.1881],[76.9192,17.9162],[76.7413,17.8954],[76.7826,17.8066],[76.6907,17.6835],[76.5307,17.7583],[76.3316,17.596],[76.3832,17.3145],[76.244,17.3788],[76.1651,17.3033],[76.1198,17.3704],[75.934,17.3227],[75.8941,17.4012],[75.8043,17.3678],[75.6331,17.4772],[75.5742,17.3833],[75.6542,17.2738],[75.6752,16.9656],[75.2797,16.9566],[75.2277,16.8432],[75.0894,16.9516],[74.9381,16.9436],[74.9198,16.7729],[74.6911,16.7155],[74.6359,16.5839],[74.5686,16.5539],[74.4549,16.6473],[74.3788,16.5284],[74.2642,16.5398],[74.3635,16.3982],[74.3209,16.2845],[74.5032,16.2254],[74.4816,16.0889],[74.365,16.0584],[74.4633,16.0399],[74.3593,15.7759],[74.209,15.7813],[74.0206,15.6062],[73.8565,15.8008],[73.7855,15.7255],[73.6646,15.7399],[73.4897,15.9879],[73.3188,16.5188],[73.2894,17.0741],[73.199,17.3051],[73.2494,17.2961],[72.9353,18.227],[72.9636,18.2805],[73.0953,18.141],[73.0902,18.289],[72.9113,18.3659],[72.7163,19.5729],[72.7821,19.6017],[72.6549,19.8349],[72.69,19.9586],[72.7754,19.9015],[72.7081,20.0711],[72.8587,20.2245],[72.9616,20.2088],[73.0396,20.0671],[73.1709,20.0521],[73.3016,20.2099],[73.4166,20.1982],[73.38,20.3939],[73.4928,20.5357],[73.3942,20.6407],[73.445,20.7098],[73.6696,20.5632],[73.9422,20.7423],[73.9011,20.9821],[73.5774,21.1677],[73.8157,21.1739],[73.9518,21.3952],[74.3304,21.5527],[73.852,21.4978],[73.7814,21.6185],[73.8917,21.6917],[73.8082,21.8376],[74.4317,22.0302],[74.5821,21.6649],[74.9019,21.629],[75.3161,21.3878],[76.0956,21.3711],[76.1653,21.2212],[76.1102,21.1612],[76.2789,21.0701],[76.6232,21.1849],[76.6215,21.3322],[76.7858,21.465],[76.7994,21.595],[77.2805,21.7587],[77.4787,21.77],[77.5421,21.7061],[77.6118,21.5385],[77.4256,21.5378],[77.4917,21.3741],[77.9019,21.3773],[78.3727,21.6134],[78.4571,21.4959],[78.9367,21.4857],[78.9165,21.5909],[79.1028,21.6014],[79.2681,21.7154],[79.4962,21.674],[79.5402,21.5427],[79.7334,21.6033],[80.0005,21.5336],[80.254,21.6245],[80.4129,21.3763],[80.6214,21.3203],[80.66,21.3341]]],[[[72.9669,20.2999],[72.9528,20.3153],[72.9617,20.3323],[72.9775,20.3313],[72.9828,20.3183],[72.9669,20.2999]]]]},"properties":{"ST_NM":"Maharashtra"}}]}